 2014  702 1802 31.4 L  20.129 -69.604120.1  DOM 49 0.8 3.0LDOM 3.9CDOM 4.6WDOM1
 GAP=217        2.29      10.8     5.7 12.9 -0.2061E+02  0.2940E+02 -0.2104E+02E
 ACTION:ARG 17-06-30 10:26 OP:nr   STATUS:               ID:20170630050600     I
 2017-06-30-0506-00S.MAN___100                                                 6
 STAT SP IPHASW D HRMM SECON CODA AMPLIT PERI AZIMU VELO AIN AR TRES W  DIS CAZ7
 SDD  BZ EPg    C  5 6 40.48   47                        170   -0.4110 11.3  47
 SDD  BE ESg    C  5 6 48.83                             170    0.9110 11.3  47
 SDD  BN  IAML     5 6 49.30       309.6 0.70                          11.3  47
 SDD  BE  IAML     5 6 51.01       239.0 0.25                          11.3  47
 ABDR BZ EPg    D  5 6 43.84   47                        127   -1.7210 75.3 298
 ABDR BE ESg    D  5 6 56.30                             127    0.2610 75.3 298
 ABDR BE  IAML     5 6 57.18      1393.1 0.20                          75.3 298
 ABDR BN  IAML     5 6 57.94       917.4 0.20                          75.3 298
 HATO EZ EPg    C  5 6 46.06   81                        125    0.5410 78.1  56
 HATO EZ ESg    C  5 6 54.78                             125   -1.1910 78.1  56
 HATO EZ  IAML     5 6 59.71        48.7 0.12                          78.1  56
 NADR BZ EPg    C  5 6 47.03   75                        115   -1.4810  107   8
 NADR BE ESg    C  5 7  1.16                             115   -0.0210  107   8
 NADR BE  IAML     5 7  6.96       354.7 0.25                           107   8
 NADR BN  IAML     5 7  7.16       615.1 0.20                           107   8
 MIDR BZ EPg    D  5 6 50.49   60                        112    0.6510  119  57
 MIDR BE ESg    C  5 7  4.43                             112    0.9410  119  57
 MIDR BN  IAML     5 7  5.24       398.2 0.55                           119  57
 MIDR BE  IAML     5 7  5.47       547.8 0.25                           119  57
 SDDR BZ EPg    C  5 6 53.13   60                        107   -0.4410  151 296
 SDDR BE ESg    C  5 7  9.55                             107   -0.4210  151 296
 SDDR BE  IAML     5 7 16.28       140.7 0.75                           151 296
 SDDR BN  IAML     5 7 16.74       178.3 0.85                           151 296
 NEDR BZ EPg    C  5 6 53.74   82                        106   -0.4610  157 274
 NEDR BE ESg    D  5 7 10.64                             106   -0.4310  157 274
 NEDR BE  IAML     5 7 12.97        81.7 0.50                           157 274
 NEDR BN  IAML     5 7 13.77        91.7 0.30                           157 274
 LUDR BZ EPg    C  5 6 59.13   62                        101    0.5710  194 329
 LUDR BE ESg    C  5 7 19.42                             101    0.7710  194 329
 LUDR BE  IAML     5 7 21.79       479.9 0.40                           194 329
 LUDR BN  IAML     5 7 23.44       799.1 0.35                           194 329
 JIDR BZ EPg    D  5 6 59.52   76                        101    0.6710  197 274
 JIDR BE ESg    D  5 7 20.42                             101    1.2510  197 274
 JIDR BN  IAML     5 7 22.22       147.1 0.55                           197 274
 JIDR BE  IAML     5 7 22.23       117.1 0.50                           197 274
