 2017  116 0506 51.5 R  18.305 -66.704 31.1  DOM  4 0.2 2.7LDOM 4.0CDOM        1
 GAP=327        0.50      28.9   223.3171.6 -0.4336E+04  0.3830E+05 -0.3373E+04E
 2017-01-16-0506-00S.MAN___100                                                 6
 OLDACT:UP  17-01-16 11:40 OP:FMGP STATUS:               ID:20170116050600     3
 OLDACT:UP  17-01-16 11:39 OP:FMGP STATUS:               ID:20170116050600     3
 OLDACT:UP  17-01-16 11:37 OP:FMGP STATUS:               ID:20170116050600     3
 OLDACT:UP  17-01-16 11:37 OP:FMGP STATUS:               ID:20170116050600     3
 OLDACT:UP  17-01-16 11:36 OP:FMGP STATUS:               ID:20170116050600     3
 OLDACT:UP  17-01-16 11:36 OP:FMGP STATUS:               ID:20170116050600     3
 OLDACT:UP  17-01-16 11:34 OP:FMGP STATUS:               ID:20170116050600     3
 OLDACT:ARG 17-01-16 11:16 OP:plst STATUS:               ID:20170116050600     3
 ACTION:UP  17-09-04 15:02 OP:jmlc STATUS:               ID:20170116050651     I
 STAT SP IPHASW D HRMM SECON CODA AMPLIT PERI AZIMU VELO AIN AR TRES W  DIS CAZ7
 AOPR BZ EPg       5 6 56.45  133                        164    0.0010 7.04 311 
 AOPR BN  IAML     5 7 28.81      1192.4 0.35                          7.04 311 
 AGPR BZ EPg       5 6 59.90  101                         94   -0.1610 46.7 293 
 AGPR BN  IAML     5 7 36.01       463.3 0.45                          46.7 293 
 PCDR BZ EPg       5 7 16.37  134                         90   -0.1010  179 278 
 MIDR BZ EPg    D  5 7 26.64  135                         90    0.2510  259 287 
 MIDR BN  IAML     5 8 14.13        41.2 2.50                           259 287 
                                                                                
 2017  116 0907 10.8 L  18.312 -68.026 79.0  DOM  6 0.9 2.8LDOM 3.8CDOM 3.3WDOM1
 SPEC AVERAGE  MO 14.0 ST 14.3 OM  2.8 f0 4.29 R0.5322 AL 0.00 WI 20.0 MW  3.3 3
 SPEC SD       MO  0.4 ST 19.9 OM  0.6 f0 2.47 R0.2819 AL      WI      MW  0.2 3
 GAP=213        2.41      34.2    12.2 17.6  0.3468E+03  0.5950E+01 -0.2805E+02E
 SPEC PCDRBH Z MO 14.3 ST  3.4 OM  2.8 f0 2.67 R0.6236 AL-0.00 WI 20.0 MW  3.5 3
 SPEC PCDRBH Z T 9 730 K 0.020 GD 90.2 VS 4.50 DE 3.40 Q0400.0 QA 0.70 Q1 1.00 3
 SPEC AGPRBH Z MO 13.9 ST 57.0 OM  2.3 f0 9.01 R0.1848 AL-0.00 WI 20.0 MW  3.2 3
 SPEC AGPRBH Z T 9 739 K 0.020 GD  126 VS 4.50 DE 3.40 Q0400.0 QA 0.70 Q1 1.00 3
 SPEC MIDRBH Z MO 13.4 ST  3.2 OM  1.7 f0 5.12 R0.3252 AL-0.00 WI 20.0 MW  2.9 3
 SPEC MIDRBH Z T 9 745 K 0.020 GD  152 VS 4.50 DE 3.40 Q0400.0 QA 0.70 Q1 1.00 3
 SPEC AOPRBH Z MO 14.2 ST 18.2 OM  2.5 f0 4.92 R0.3384 AL-0.00 WI 20.0 MW  3.4 3
 SPEC AOPRBH Z T 9 747 K 0.020 GD  156 VS 4.50 DE 3.40 Q0400.0 QA 0.70 Q1 1.00 3
 SPEC SMDRBH Z MO 13.8 ST0.243 OM  2.0 f0 1.63 R1.0215 AL-0.00 WI 20.0 MW  3.1 3
 SPEC SMDRBH Z T 9 750 K 0.020 GD  181 VS 4.50 DE 3.40 Q0400.0 QA 0.70 Q1 1.00 3
 SPEC NADRBH Z MO 14.5 ST  4.0 OM  2.6 f0 2.38 R0.6996 AL-0.00 WI 20.0 MW  3.6 3
 SPEC NADRBH Z T 9 8 4 K 0.020 GD  238 VS 4.50 DE 3.40 Q0400.0 QA 0.70 Q1 1.00 3
 2017-01-16-0906-00S.MAN___100                                                 6
 OLDACT:ARG 17-01-16 11:16 OP:plst STATUS:               ID:20170116090600     3
 ACTION:UP  17-09-04 15:02 OP:jmlc STATUS:               ID:20170116090710     I
 OLDACT:UP  17-01-16 11:31 OP:FMGP STATUS:               ID:20170116090600     3
 STAT SP IPHASW D HRMM SECON CODA AMPLIT PERI AZIMU VELO AIN AR TRES W  DIS CAZ7
 PCDR BZ EPg       9 7 22.75   99                        148   -0.1310 43.6 301 
 PCDR HZ ESg       9 7 31.73                             148   -0.1110 43.6 301 
 PCDR HZ  IAML     9 7 34.44       280.3 0.56                          43.6 301 
 PCDR BZ  IAML     9 7 34.48       338.8 0.60                          43.6 301 
 AGPR BZ EPg       9 7 26.10   96                        123   -1.4810 98.4  80 
 AGPR BN ESg       9 7 40.86                             123    0.8410 98.4  80 
 AGPR BZ  IAML     9 7 43.46       317.6 0.15                          98.4  80 
 AGPR BN  IAML     9 7 43.66       587.0 0.20                          98.4  80 
 MIDR BZ EPg       9 7 30.29  103                        115   -0.7510  131 305 
 MIDR BN ESg       9 7 46.61                             115    0.5810  131 305 
 MIDR BN  IAML     9 7 48.51       153.7 0.50                           131 305 
 MIDR BZ  IAML     9 7 48.74        65.4 0.40                           131 305 
 AOPR BZ EPg       9 7 32.28  109                        114    0.8210  135  88 
 AOPR BZ  IAML     9 7 53.93       332.7 0.35                           135  88 
 AOPR BN  IAML     9 7 57.84       423.3 0.25                           135  88 
 SMDR BZ EPg       9 7 33.32   79                        109   -1.3510  163 312 
 SMDR BN ESg       9 7 51.76                             109   -0.5910  163 312 
 SMDR BN  IAML     9 7 54.51        96.9 0.50                           163 312 
 SMDR BZ  IAML     9 8  1.73        33.1 1.55                           163 312 
 NADR BZ EPg       9 7 43.14  100                        103    1.3110  225 301 
 NADR BN ESg       9 8  5.67                             103    0.8710  225 301 
 NADR BN  IAML     9 8 12.50         7.5 0.45                           225 301 
 NADR BZ  IAML     9 8 29.62       264.9 1.35                           225 301 
                                                                                
 2017  117 0717 39.1 L  18.390 -68.819189.5  DOM  8 0.4 2.7LDOM 3.6CDOM 2.7WDOM1
 SPEC AVERAGE  MO 13.1 ST  6.4 OM  2.1 f0 7.51 R0.2236 AL 0.00 WI 20.0 MW  2.7 3
 SPEC SD       MO  0.3 ST  3.9 OM  0.8 f0 1.56 R0.0619 AL      WI      MW  0.2 3
 GAP=162        0.98      11.4     3.3  9.0  0.1226E+02  0.2698E+01  0.6416E+02E
 SPEC SDDRBH Z MO 12.9 ST  2.3 OM  0.9 f0 6.54 R0.2501 AL-0.00 WI 20.0 MW  2.5 3
 SPEC SDDRBH Z T 71849 K 0.020 GD  329 VS 4.42 DE 3.40 Q0400.0 QA 0.70 Q1 1.00 3
 SPEC AOPRBH Z MO 13.5 ST 10.6 OM  1.6 f0 6.67 R0.2452 AL-0.00 WI 20.0 MW  3.0 3
 SPEC AOPRBH Z T 71840 K 0.020 GD  288 VS 4.42 DE 3.40 Q0400.0 QA 0.70 Q1 1.00 3
 SPECBANDRBH Z MO 13.0 ST 11.4 OM  1.1 f0 10.7 R 0.153 AL-0.00 WI 20.0 MW  2.6 3
 SPECBANDRBH Z T 71831 K 0.020 GD224.3 VS 4.42 DE 3.40 Q0400.0 QA 0.70 Q1 1.00 3
 SPEC MIDRBH Z MO 12.9 ST  6.3 OM  1.1 f0 9.31 R0.1757 AL-0.00 WI 20.0 MW  2.5 3
 SPEC MIDRBH Z T 71820 K 0.020 GD  202 VS 4.42 DE 3.40 Q0400.0 QA 0.70 Q1 1.00 3
 2017-01-17-0715-00S.MAN___100                                                 6
 OLDACT:ARG 17-01-17 07:24 OP:amrz STATUS:               ID:20170117071500     3
 ACTION:UP  17-09-04 15:02 OP:jmlc STATUS:               ID:20170117071739     I
 OLDACT:UP  17-01-17 23:36 OP:FMGP STATUS:               ID:20170117071500     3
 OLDACT:UP  17-01-17 12:46 OP:FMGP STATUS:               ID:20170117071500     3
 STAT SP IPHASW D HRMM SECON CODA AMPLIT PERI AZIMU VELO AIN AR TRES W  DIS CAZ7
 PCDR BZ EPg    C  718  2.78   63                        165   -0.7210 48.2  73 
 PCDR BN ESg       718 21.49                             165   -0.0410 48.2  73 
 MIDR BZ EPg       718  3.83   56                        159   -0.4610 70.0 340 
 MIDR BN ESg       718 22.85                             159   -0.0610 70.0 340 
 MIDR BE  IAML     718 26.54        35.1 0.95                          70.0 340 
 SMDR BN  IAML     718 26.06        18.0 0.40                           107 339 
 SMDR BE ESg    D  718 26.32                             149    0.0810  107 339 
 SMDR BE  IAML     718 30.07        29.0 0.95                           107 339 
 AGPR BZ EPg       718 11.98   65                        134    0.3210  181  87 
 AGPR BN  IAML     718 38.86       117.4 2.50                           181  87 
 AGPR BE  IAML     718 42.74        69.7 1.30                           181  87 
 CRPR BZ EPg    C  718 12.35   94                        133    0.0910  188 103 
 CRPR BE  IAML     718 38.36        52.4 1.50                           188 103 
 AOPR BZ EPg       718 14.79   82                        128   -0.2210  218  91 
 AOPR BN ESg       718 42.09                             128    0.5210  218  91 
 AOPR BE  IAML     718 46.29        94.4 0.55                           218  91 
 AOPR BN  IAML     718 48.33        82.2 0.25                           218  91 
 PODR BN ESg       718 49.03                             123   -0.0310  262 265 
 PODR BE  IAML     718 49.26        52.8 1.90                           262 265 
 PODR BN  IAML     718 49.91        41.5 2.70                           262 265 
 SDDR BN ESg       718 50.55                             122    0.5110  269 284 
 SDDR BE  IAML     718 56.46         4.5 0.15                           269 284 
 SDDR BN  IAML     718 59.09        27.7 2.30                           269 284 
                                                                                
 2017  117 0908  0.1 L  19.631 -76.729  0.0  DOM  6 1.5 5.1LDOM 5.1CDOM 4.9WDOM1
 SPEC AVERAGE  MO 16.4 ST  1.3 OM  5.6 f00.270 R4.5196 AL 0.00 WI 20.0 MW  4.9 3
 SPEC SD       MO  2.7 ST  4.7 OM  3.7 f0 5.09 R3.7159 AL      WI      MW  1.8 3
 GAP=220        3.95      56.3    55.5 38.0 -0.2936E+04 -0.5106E+03  0.4753E+02E
 SPEC ABDRBH Z MO 16.1 ST0.841 OM  4.5 f00.302 R3.9205 AL-0.00 WI 20.0 MW  4.7 3
 SPEC ABDRBH Z T 91038 K 0.020 GD  408 VS 3.20 DE 2.60 Q0400.0 QA 0.70 Q1 0.00 3
 SPECBANDRBH Z MO 16.7 ST0.374 OM  5.1 f00.143 R8.2797 AL-0.00 WI 20.0 MW  5.1 3
 SPECBANDRBH Z T 91046 K 0.020 GD  429 VS 3.20 DE 2.60 Q0400.0 QA 0.70 Q1 0.00 3
 SPEC BON1HN Z MO 24.3 ST999.9 OM 12.7 f00.340 R3.4824 AL-0.00 WI 20.0 MW 10.1 3
 SPEC BON1HN Z T 91040 K 0.020 GD  423 VS 3.20 DE 2.60 Q0400.0 QA 0.70 Q1 0.00 3
 SPEC GRTKBH Z MO 16.0 ST  1.2 OM  4.7 f00.343 R3.4519 AL-0.00 WI 20.0 MW  4.6 3
 SPEC GRTKBH Z T 91021 K 0.020 GD  248 VS 3.20 DE 2.60 Q0400.0 QA 0.70 Q1 0.00 3
 SPEC JIDRBH Z MO 16.6 ST  1.0 OM  5.1 f00.220 R5.3818 AL-0.00 WI 20.0 MW  5.0 3
 SPEC JIDRBH Z T 91018 K 0.020 GD  327 VS 3.20 DE 2.60 Q0400.0 QA 0.70 Q1 0.00 3
 SPEC MCDRBH Z MO 16.5 ST  1.3 OM  5.2 f00.246 R4.8130 AL-0.00 WI 20.0 MW  5.0 3
 SPEC MCDRBH Z T 910 9 K 0.020 GD  230 VS 3.20 DE 2.60 Q0400.0 QA 0.70 Q1 0.00 3
 SPEC MIDRBH Z MO 16.1 ST0.152 OM  4.4 f00.171 R6.9240 AL-0.00 WI 20.0 MW  4.7 3
 SPEC MIDRBH Z T 911 4 K 0.020 GD  511 VS 3.20 DE 2.60 Q0400.0 QA 0.70 Q1 0.00 3
 SPEC MTDJBH Z MO 17.0 ST  2.4 OM  5.9 f00.212 R5.5849 AL-0.00 WI 20.0 MW  5.3 3
 SPEC MTDJBH Z T 9 851 K 0.020 GD  133 VS 3.20 DE 2.60 Q0400.0 QA 0.70 Q1 0.00 3
 SPEC SDD BH Z MO 16.3 ST0.108 OM  4.7 f00.126 R9.3968 AL-0.00 WI 20.0 MW  4.8 3
 SPEC SDD BH Z T 911 3 K 0.020 GD  455 VS 3.20 DE 2.60 Q0400.0 QA 0.70 Q1 0.00 3
 SPEC SDDRBH Z MO 15.9 ST0.496 OM  4.6 f00.280 R4.2286 AL-0.00 WI 20.0 MW  4.6 3
 SPEC SDDRBH Z T 91015 K 0.020 GD  239 VS 3.20 DE 2.60 Q0400.0 QA 0.70 Q1 0.00 3
 2017-01-17-0908-00S.MAN___100                                                 6
 OLDACT:ARG 17-01-17 10:30 OP:amrz STATUS:               ID:20170117090800     3
 ACTION:UP  17-09-04 15:02 OP:jmlc STATUS:               ID:20170117090800     I
 OLDACT:UP  17-01-17 19:11 OP:FMGP STATUS:               ID:20170117090800     3
 OLDACT:UP  17-01-17 19:09 OP:FMGP STATUS:               ID:20170117090800     3
 OLDACT:UP  17-01-17 19:05 OP:FMGP STATUS:               ID:20170117090800     3
 OLDACT:UP  17-01-17 18:55 OP:FMGP STATUS:               ID:20170117090800     3
 OLDACT:UP  17-01-17 18:53 OP:FMGP STATUS:               ID:20170117090800     3
 OLDACT:UP  17-01-17 18:52 OP:FMGP STATUS:               ID:20170117090800     3
 OLDACT:UP  17-01-17 18:51 OP:FMGP STATUS:               ID:20170117090800     3
 OLDACT:UP  17-01-17 18:50 OP:FMGP STATUS:               ID:20170117090800     3
 OLDACT:UP  17-01-17 18:45 OP:FMGP STATUS:               ID:20170117090800     3
 OLDACT:UP  17-01-17 12:38 OP:FMGP STATUS:               ID:20170117090800     3
 STAT SP IPHASW D HRMM SECON CODA AMPLIT PERI AZIMU VELO AIN AR TRES W  DIS CAZ7
 GTBY BZ EPg    C  9 8 26.04                              90   -1.9710  173  79 
 MTDJ BZ EPg    D  9 8 29.58  195                         90    0.7710  178 209 
 MTDJ BE ESg       9 8 49.20                              90   -0.8210  178 209 
 MTDJ BZ  IAML     9 8 57.06     25299.7 0.70                           178 209 
 PAPH BZ EPn       9 9  4.93  281                         50   -0.5610  482 104 
 MCDR BZ EPn    D  9 9 14.66  276                         50    2.9410  532  86 
 SDDR BZ EPn    C  9 9 18.19  259                         50    0.9710  576  96 
 SDDR BZ  IAML     910 42.35      1226.3 0.55                           576  96 
 GRTK BZ EPn       9 9 21.21  269                         50   -1.3310  620  69 
                                                                                
 2017  119 0245 48.8 L  18.992 -68.013 10.7  DOM  5 0.8 2.2LDOM 3.2CDOM        1
 GAP=208        2.18      17.6     7.1118.3  0.9726E+02 -0.6618E+03 -0.1662E+04E
 ACTION:UP  17-09-04 15:02 OP:jmlc STATUS:               ID:20170119024548     I
 OLDACT:ARG 17-01-19 10:30 OP:nr   STATUS:               ID:20170119024400     3
 2017-01-19-0244-00S.MAN___100                                                 6
 STAT SP IPHASW D HRMM SECON CODA AMPLIT PERI AZIMU VELO AIN AR TRES W  DIS CAZ7
 PCDR BZ EPg    C  245 58.57                              99   -0.9110 65.6 216 
 PCDR BE ESg    D  246  7.65                              99    0.2410 65.6 216 
 PCDR BN  IAML     246  7.65       104.5 0.90                          65.6 216 
 PCDR BE  IAML     246  9.85        48.7 0.95                          65.6 216 
 MIDR BZ EPg    C  246  6.09   54                         96   -0.3610  109 270 
 MIDR BE ESg    D  246 20.99                              96    1.4510  109 270 
 MIDR BE  IAML     246 23.88        16.0 0.60                           109 270 
 MIDR BN  IAML     246 45.16        25.0 2.50                           109 270 
 AGPR BZ EPg    C  246  6.61   49                         96   -0.2010  111 121 
 AGPR BE ESg    D  246 21.07                              96    0.9010  111 121 
 AGPR BN  IAML     246 26.67        62.4 0.15                           111 121 
 AGPR BE  IAML     246 31.46        95.6 1.40                           111 121 
 CRPR BZ EPg    D  246 13.20   62                         94    0.7710  146 138 
 CRPR BE ESg    C  246 30.01                              94    0.0610  146 138 
 CRPR BN  IAML     246 30.66        55.0 1.85                           146 138 
 CRPR BE  IAML     246 33.18        65.5 1.90                           146 138 
 AOPR BZ EPg    C  246 11.73   65                         94   -1.4310  151 118 
 AOPR BE ESg    C  246 30.70                              94   -0.5110  151 118 
 AOPR BN  IAML     246 34.67        70.8 0.20                           151 118 
 AOPR BE  IAML     246 41.06        98.5 0.25                           151 118 
                                                                                
 2017  120 0148 38.4 L  19.999 -75.660 31.1  DOM  5 0.8 3.7LDOM 4.2CDOM        1
 GAP=337        2.04      20.8    15.1 17.7  0.1165E+03  0.4375E+02  0.1346E+03E
 ACTION:UP  17-09-04 15:02 OP:jmlc STATUS:               ID:20170120014838     I
 OLDACT:UP  17-01-20 23:28 OP:FMGP STATUS:               ID:20170120014800     3
 OLDACT:UP  17-01-20 23:26 OP:FMGP STATUS:               ID:20170120014800     3
 OLDACT:UP  17-01-20 23:18 OP:FMGP STATUS:               ID:20170120014800     3
 OLDACT:UP  17-01-20 23:17 OP:FMGP STATUS:               ID:20170120014800     3
 OLDACT:UP  17-01-20 02:29 OP:FMGP STATUS:               ID:20170120014800     3
 OLDACT:ARG 17-01-20 02:15 OP:nr   STATUS:               ID:20170120014800     3
 2017-01-20-0148-00S.MAN___100                                                 6
 STAT SP IPHASW D HRMM SECON CODA AMPLIT PERI AZIMU VELO AIN AR TRES W  DIS CAZ7
 GTBY BZ EPg       148 49.63   83                        122    0.4910 58.0  98 
 GTBY BN ESg       148 57.94                             122    0.8910 58.0  98 
 GTBY BN  IAML     148 58.60      2261.9 0.15                          58.0  98 
 PAPH BZ EPg    D  149 34.26  105                         93   -0.6610  389 114 
 PAPH BE ESg    D  150 18.11                              93    1.4110  389 114 
 PAPH BE  IAML     150 22.53       306.9 0.28                           389 114 
 PAPH BN  IAML     150 22.79       542.4 0.32                           389 114 
 MCDR BZ EPg    D  149 38.55  152                         93   -0.5710  419  91 
 MCDR BE ESg    D  150 23.75                              93   -0.2610  419  91 
 MCDR BE  IAML     150 31.67       106.3 0.90                           419  91 
 MCDR BN  IAML     150 33.31       180.5 0.60                           419  91 
 JIDR BZ EPg    D  149 40.67  125                         93   -0.4510  433 112 
 JIDR BN ESg       150 26.69                              93   -0.8110  433 112 
 JIDR BE  IAML     150 36.64       103.3 0.45                           433 112 
 JIDR BN  IAML     150 37.84        61.1 0.45                           433 112 
 PODR BZ EPg       149 51.87  137                         92    0.7810  503 113 
 PODR BE ESg       150 44.02                              92   -0.8310  503 113 
 PODR BE  IAML     150 57.59        27.9 0.90                           503 113 
 PODR BN  IAML     151  1.50        32.0 0.60                           503 113 
                                                                                
