 2017  111 1411 55.8 L  20.116 -70.810 12.2  DOM 16 1.0 3.0LDOM 3.6CDOM 3.1WDOM1
 SPEC AVERAGE  MO 13.7 ST 14.1 OM  3.0 f0 4.09 R1.1690 AL 0.00 WI 20.0 MW  3.1 3
 SPEC SD       MO  3.7 ST 31.3 OM  1.1 f0 4.11 R2.1536 AL      WI      MW  0.9 3
 GAP=130        2.67       6.3     4.8 45.7 -0.1197E+01 -0.4527E+02 -0.3833E+02E
 SPEC SDD BH Z MO 13.5 ST0.172 OM  2.3 f0 1.27 R0.9323 AL-0.00 WI 20.0 MW  2.9 3
 SPEC SDD BH Z T141249 K 0.020 GD  178 VS 3.20 DE 2.60 Q0400.0 QA 0.70 Q1 1.00 3
 SPEC SDDRBH Z MO 13.8 ST  1.1 OM  2.7 f0 1.94 R0.6103 AL-0.00 WI 20.0 MW  3.1 3
 SPEC SDDRBH Z T141230 K 0.020 GD  126 VS 3.20 DE 2.60 Q0400.0 QA 0.70 Q1 1.00 3
 SPEC SMDRBH Z MO 13.2 ST0.315 OM  2.0 f0 1.99 R0.5950 AL-0.00 WI 20.0 MW  2.7 3
 SPEC SMDRBH Z T141248 K 0.020 GD  168 VS 3.20 DE 2.60 Q0400.0 QA 0.70 Q1 1.00 3
 SPEC SC01BH Z MO 13.9 ST  1.3 OM  3.1 f0 1.76 R0.6727 AL-0.00 WI 20.0 MW  3.2 3
 SPEC SC01BH Z T141217 K 0.020 GD 77.7 VS 3.20 DE 2.60 Q0400.0 QA 0.70 Q1 1.00 3
 SPEC REDRBH Z MO 13.3 ST  7.0 OM  2.3 f0 4.93 R0.2402 AL-0.00 WI 20.0 MW  2.8 3
 SPEC REDRBH Z T141230 K 0.020 GD  124 VS 3.20 DE 2.60 Q0400.0 QA 0.70 Q1 1.00 3
 SPEC ABDRBH Z MO 13.2 ST 11.0 OM  2.1 f0 6.49 R0.1824 AL-0.00 WI 20.0 MW  2.7 3
 SPEC ABDRBH Z T141234 K 0.020 GD  134 VS 3.20 DE 2.60 Q0400.0 QA 0.70 Q1 1.00 3
 SPEC GRTKBH Z MO 13.1 ST124.1 OM  2.0 f0 15.4 R0.0769 AL-0.00 WI 20.0 MW  2.7 3
 SPEC GRTKBH Z T141241 K 0.020 GD  143 VS 3.20 DE 2.60 Q0400.0 QA 0.70 Q1 1.00 3
 SPEC HIDRBH Z MO 13.2 ST 12.9 OM  1.9 f0 6.71 R0.1765 AL-0.00 WI 20.0 MW  2.7 3
 SPEC HIDRBH Z T1413 9 K 0.020 GD  227 VS 3.20 DE 2.60 Q0400.0 QA 0.70 Q1 1.00 3
 SPEC LUDRBH Z MO 14.0 ST 21.2 OM  3.6 f0 4.16 R0.2846 AL-0.00 WI 20.0 MW  3.3 3
 SPEC LUDRBH Z T1412 2 K 0.020 GD 31.3 VS 3.20 DE 2.60 Q0400.0 QA 0.70 Q1 1.00 3
 SPEC MADRBH Z MO 14.1 ST0.975 OM  3.3 f0 1.44 R0.8222 AL-0.00 WI 20.0 MW  3.3 3
 SPEC MADRBH Z T141214 K 0.020 GD 69.2 VS 3.20 DE 2.60 Q0400.0 QA 0.70 Q1 1.00 3
 SPEC MCDRBH Z MO 13.0 ST 17.3 OM  2.1 f0 8.55 R0.1385 AL-0.00 WI 20.0 MW  2.6 3
 SPEC MCDRBH Z T141221 K 0.020 GD 92.8 VS 3.20 DE 2.60 Q0400.0 QA 0.70 Q1 1.00 3
 SPEC MIDRBH Z MO 15.3 ST0.015 OM  4.1 f00.138 R8.5797 AL-0.00 WI 20.0 MW  4.2 3
 SPEC MIDRBH Z T141256 K 0.020 GD  190 VS 3.20 DE 2.60 Q0400.0 QA 0.70 Q1 1.00 3
 SPEC NEDRBH Z MO 14.4 ST0.069 OM  3.2 f00.477 R2.4822 AL-0.00 WI 20.0 MW  3.5 3
 SPEC NEDRBH Z T141245 K 0.020 GD  168 VS 3.20 DE 2.60 Q0400.0 QA 0.70 Q1 1.00 3
 SPEC PAPHBH Z MO 14.6 ST0.064 OM  3.3 f00.389 R3.0437 AL-0.00 WI 20.0 MW  3.7 3
 SPEC PAPHBH Z T141256 K 0.020 GD  231 VS 3.20 DE 2.60 Q0400.0 QA 0.70 Q1 1.00 3
 SPEC PODRBH Z MO 13.4 ST0.627 OM  2.2 f0 2.07 R0.5720 AL-0.00 WI 20.0 MW  2.9 3
 SPEC PODRBH Z T141253 K 0.020 GD  188 VS 3.20 DE 2.60 Q0400.0 QA 0.70 Q1 1.00 3
 2017-01-11-1411-00S.MAN___098                                                 6
 ACTION:UP  17-09-04 15:02 OP:jmlc STATUS:               ID:20170111141155     I
 OLDACT:UP  17-01-11 17:14 OP:JMLC STATUS:               ID:20170111141100     3
 OLDACT:ARG 17-01-11 16:22 OP:jmlc STATUS:               ID:20170111141100     3
 STAT SP IPHASW D HRMM SECON CODA AMPLIT PERI AZIMU VELO AIN AR TRES W  DIS CAZ7
 LUDR BZ EPg      1411 59.67   69                        102   -1.1810 28.8 211 
 LUDR BN ESg      1412  4.15                             102   -0.4410 28.8 211 
 LUDR BN  IAML    1412  4.68     17985.6 0.30                          28.8 211 
 LUDR BE  IAML    1412  4.86     18192.5 0.30                          28.8 211 
 MADR BZ EPg      1412  6.42   82                         90   -0.3810 68.1 207 
 MADR BE  IAML    1412 17.25      1394.4 0.50                          68.1 207 
 MADR BN  IAML    1412 17.26      1743.9 0.40                          68.1 207 
 SC01 BZ EPg      1412  8.71   80                         90    0.6110 76.7 174 
 SC01 BN ESg      1412 18.95                              90    1.7510 76.7 174 
 SC01 BE  IAML    1412 22.33       467.0 0.95                          76.7 174 
 SC01 BN  IAML    1412 26.20       436.4 0.45                          76.7 174 
 MCDR BZ EPg      1412 11.44   70                         90    1.0210 92.0 255 
 MCDR BN ESg      1412 22.78                              90    1.5510 92.0 255 
 MCDR BE  IAML    1412 28.51       209.4 0.70                          92.0 255 
 MCDR BN  IAML    1412 28.66       324.0 1.00                          92.0 255 
 NADR BN  IAML    1412 37.07         8.1 0.30                           131 130 
 NADR BE  IAML    1412 39.46       532.3 0.15                           131 130 
 REDR BZ EPg      1412 15.75   96                         90   -0.7310  132 225 
 REDR BN ESg      1412 32.18                              90    0.4010  132 225 
 REDR BE  IAML    1412 32.83       497.6 0.20                           132 225 
 REDR BN  IAML    1412 34.63       298.3 0.20                           132 225 
 SDDR BZ EPg      1412 16.27   88                         90   -0.7510  135 202 
 SDDR BN ESg      1412 32.46                              90   -0.2610  135 202 
 SDDR BE  IAML    1412 32.81       312.4 0.50                           135 202 
 SDDR BN  IAML    1412 33.11       362.2 0.50                           135 202 
 ABDR BZ EPg      1412 18.68   79                         90   -0.0010  146 172 
 ABDR BE  IAML    1412 40.35       262.7 0.55                           146 172 
 ABDR BN  IAML    1412 43.40       234.9 0.35                           146 172 
 GRTK BZ EPg      1412 20.53   75                         90    0.1010  158 348 
 GRTK BE  IAML    1412 44.13       380.0 0.25                           158 348 
 GRTK BN  IAML    1412 45.01       429.7 0.30                           158 348 
 NEDR BN  IAML    1412 54.73       101.0 1.25                           193 201 
 SMDR BN ESg      1412 49.55                              90    1.7010  193 118 
 SMDR BN  IAML    1412 52.10        94.4 0.55                           193 118 
 SMDR BE  IAML    1412 59.00        83.0 1.50                           193 118 
 NEDR BN ESg      1412 47.08                              90   -0.8910  193 201 
 SMDR BZ EPg      1412 25.32   90                         90   -0.4010  193 118 
 NEDR BZ EPg      1412 25.73  104                         90   -0.0510  193 201 
 SDD  BN ESg      1412 49.99                              90   -1.1710  206 153 
 SDD  BN  IAML    1412 53.25        75.3 0.70                           206 153 
 SDD  BE  IAML    1412 55.77       130.2 0.50                           206 153 
 JIDR BZ EPg      1412 28.28   84                         90   -0.0710  210 212 
 JIDR BN ESg      1412 53.27                              90    0.8410  210 212 
 JIDR BN  IAML    1412 54.63       261.3 0.30                           210 212 
 JIDR BE  IAML    1412 54.80       292.4 0.50                           210 212 
 JIDR BZ  IAML    1412 55.14       168.0 0.25                           210 212 
 PODR BZ EPg      1412 29.70   94                         90   -0.4110  221 193 
 PODR BN ESg      1412 55.39                              90   -0.1010  221 193 
 PODR BN  IAML    1412 59.42       182.9 0.60                           221 193 
 PODR BE  IAML    1413  0.41       149.1 0.35                           221 193 
 MIDR BZ EPg      1412 28.90   83                         90   -1.3910  223 124 
 MIDR BN ESg      1412 57.65                              90    1.8510  223 124 
 MIDR BN  IAML    1413  2.76        40.5 0.50                           223 124 
 MIDR BE  IAML    1413  6.41        46.2 1.30                           223 124 
 HIDR BZ EPg      1412 36.88   71                         90   -1.6010  277 127 
 HIDR BE  IAML    1413 13.03       126.4 0.25                           277 127 
 HIDR BN  IAML    1413 14.08       202.2 0.25                           277 127 
                                                                                
 2017  112 0720 43.6 L  19.417 -69.570108.5  DOM 10 0.7 2.7LDOM 3.3CDOM        1
 GAP=199        1.89      14.2     5.8 13.0  0.3403E+02  0.4067E+02  0.4218E+02E
 ACTION:UP  17-09-04 15:02 OP:jmlc STATUS:               ID:20170112072043     I
 OLDACT:ARG 17-01-12 18:14 OP:AMMR STATUS:               ID:20170112072000     3
 2017-01-12-0720-00S.MAN___100                                                 6
 STAT SP IPHASW D HRMM SECON CODA AMPLIT PERI AZIMU VELO AIN AR TRES W  DIS CAZ7
 SMDR BN ESg       721 10.16                             157    0.2510 42.5 109 
 SMDR BE  IAML     721 10.27       188.7 0.45                          42.5 109 
 SMDR BN  IAML     721 10.39       167.7 0.45                          42.5 109 
 MIDR BZ EPg       720 59.84   58                        143   -0.6910 72.7 131 
 MIDR BN ESg       721 11.72                             143   -1.3210 72.7 131 
 MIDR BE  IAML     721 11.76       174.4 0.20                          72.7 131 
 MIDR BN  IAML     721 12.29       180.0 0.15                          72.7 131 
 SDD  BZ EPg       721  5.07   46                        130    1.3410  112 199 
 SDD  BN  IAML     721 13.54        30.8 0.35                           112 199 
 SC01 BZ EPg       721  5.18   52                        127    0.5210  122 271 
 SC01 BN ESg       721 21.03                             127    0.8010  122 271 
 SC01 BN  IAML     721 22.46       142.3 1.10                           122 271 
 SC01 BE  IAML     721 22.54       167.1 0.25                           122 271 
 ABDR BE  IAML     721 21.42       176.6 0.30                           130 239 
 PCDR HZ EPg       721  8.90   59                        118    0.4410  160 128 
 PCDR BZ EPg       721  8.97   58                        118            160 128 
 PCDR BE  IAML     721 26.42        56.4 1.15                           160 128 
 PCDR BE ESg       721 27.47                             118    0.6210  160 128 
 PCDR HE  IAML     721 31.65       121.8 1.46                           160 128 
 PCDR HN  IAML     721 36.66        87.7 1.64                           160 128 
 PCDR BN E         724 12.92                                            160 128 
 SDDR BZ EPg       721 11.73   61                        114    0.3310  187 255 
 SDDR BN ESg       721 32.09                             114    0.1410  187 255 
 SDDR BE  IAML     721 33.96        37.3 0.25                           187 255 
 SDDR BN  IAML     721 34.36        55.8 0.30                           187 255 
 REDR BZ EPg       721 14.95   67                        109   -0.5510  225 266 
 REDR BN ESg       721 38.29                             109   -0.7910  225 266 
 REDR BN  IAML     721 39.98       116.9 0.15                           225 266 
 REDR BE  IAML     721 39.99       192.9 0.10                           225 266 
 PODR BZ EPg    C  721 15.20   49                        109   -0.7310  227 233 
 PODR BE  IAML     721 38.91        50.1 1.00                           227 233 
 PODR BE ESg       721 39.40                             109   -0.4310  227 233 
 PODR BN  IAML     721 44.31        25.1 1.50                           227 233 
 JIDR BZ EPg       721 19.07   87                        105   -0.4810  261 247 
 JIDR BE  IAML     721 24.63        43.9 2.40                           261 247 
 JIDR BN  IAML     721 45.55        33.3 2.20                           261 247 
 JIDR BN ESg       721 46.68                             105    0.5410  261 247 
                                                                                
 2017  112 2257 13.8 L  19.750 -70.078 22.5  DOM  8 0.6 2.6LDOM 3.5CDOM        1
 GAP=236        1.73      14.8     3.3 57.5  0.3341E+01  0.4431E+02 -0.4254E+02E
 ACTION:UP  17-09-04 15:02 OP:jmlc STATUS:               ID:20170112225713     I
 OLDACT:UP  17-01-12 23:35 OP:AMMR STATUS:               ID:20170112225600     3
 OLDACT:UP  17-01-12 23:34 OP:AMMR STATUS:               ID:20170112225600     3
 OLDACT:UP  17-01-12 23:23 OP:AMMR STATUS:               ID:20170112225600     3
 OLDACT:ARG 17-01-12 23:16 OP:plst STATUS:               ID:20170112225600     3
 2017-01-12-2256-00S.MAN___100                                                 6
 STAT SP IPHASW D HRMM SECON CODA AMPLIT PERI AZIMU VELO AIN AR TRES W  DIS CAZ7
 SC01 BZ EPg    D 2257 27.09   61                        102    0.8210 76.9 242 
 SC01 BN  IAML    2257 44.39       106.9 0.60                          76.9 242 
 SMDR BZ EPg      2257 30.18   63                         98   -0.4810  106 118 
 SMDR BN ESg      2257 44.55                              98    1.3910  106 118 
 SMDR BN  IAML    2257 45.21        84.2 0.60                           106 118 
 ABDR BZ EPg      2257 31.40   65                         97   -1.2710  119 209 
 ABDR BN  IAML    2257 46.04       172.1 0.20                           119 209 
 MIDR BZ EPg      2257 34.63   85                         96   -0.6910  137 128 
 MIDR BN ESg      2257 51.29                              96    0.0210  137 128 
 MIDR BN  IAML    2257 54.41        45.1 0.10                           137 128 
 SDDR BZ EPg    D 2257 37.46   83                         95   -0.2810  153 236 
 SDDR BN ESg      2257 55.52                              95    0.0410  153 236 
 SDDR BN  IAML    2257 56.05        50.5 0.35                           153 236 
 PODR BZ EPg    D 2257 47.48   88                         93    0.1510  216 216 
 PODR BN  IAML    2258 17.06        45.2 1.50                           216 216 
 PCDR BZ EPg      2257 48.67   85                         93    0.1210  225 127 
 PCDR HZ ESg      2258 13.90                              93   -0.3910  225 127 
 PCDR HZ  IAML    2258 17.77       144.8 1.24                           225 127 
 JIDR BZ EPg      2257 49.84   71                         93    0.0910  233 234 
 JIDR BN ESg      2258 16.86                              93    0.4810  233 234 
 JIDR BN  IAML    2258 19.44       101.7 0.45                           233 234 
                                                                                
 2017  115 0422 18.6 L  19.442 -68.819  0.2  DOM  4 0.4 2.3LDOM 2.9CDOM        1
 GAP=246        0.94       9.1     7.2999.9  0.6033E+02 -0.1738E+05 -0.2147E+05E
 ACTION:UP  17-09-04 15:02 OP:jmlc STATUS:               ID:20170115042218     I
 OLDACT:UP  17-01-15 11:19 OP:FMGP STATUS:               ID:20170115042000     3
 OLDACT:ARG 17-01-15 11:01 OP:nr   STATUS:               ID:20170115042000     3
 2017-01-15-0420-00S.MAN___100                                                 6
 STAT SP IPHASW D HRMM SECON CODA AMPLIT PERI AZIMU VELO AIN AR TRES W  DIS CAZ7
 SMDR BZ EPg    C  422 24.73   35                         90   -0.7210 42.3 247 
 SMDR BE ESg    C  422 30.63                              90    0.1310 42.3 247 
 SMDR BE  IAML     422 31.12       110.7 0.20                          42.3 247 
 SMDR BN  IAML     422 37.22        92.0 0.55                          42.3 247 
 MIDR BZ EPg    D  422 27.50   46                         90   -0.2110 56.3 206 
 MIDR BE ESg    C  422 34.46                              90    0.0310 56.3 206 
 MIDR BN  IAML     422 34.67       197.4 0.55                          56.3 206 
 MIDR BE  IAML     422 34.96       118.1 0.30                          56.3 206 
 PCDR HZ EPg    C  422 37.26   45                         90    0.4710  113 156 
 PCDR HE ESg    C  422 50.18                              90   -0.0610  113 156 
 PCDR HN  IAML     422 51.94       279.5 2.14                           113 156 
 PCDR HE  IAML     422 54.32       149.2 1.82                           113 156 
 SC01 BZ EPg    D  422 50.89   49                         90   -0.0710  200 270 
 SC01 BE ESg    C  423 15.30                              90    0.4210  200 270 
 SC01 BN  IAML     423 15.58        47.1 1.40                           200 270 
 SC01 BE  IAML     423 18.35        60.8 2.35                           200 270 
                                                                                
 2017  115 2327 59.6 R                       DOM  7     3.9CDOM                1
 2017-01-15-2327-00S.MAN___100                                                 6
 OLDACT:ARG 17-01-15 23:56 OP:plst STATUS:               ID:20170115232700     3
 ACTION:UP  17-09-04 15:02 OP:jmlc STATUS:               ID:20170115232759     I
 OLDACT:UP  17-01-16 13:31 OP:FMGP STATUS:               ID:20170115232700     3
 STAT SP IPHASW D HRMM SECON CODA AMPLIT PERI AZIMU VELO AIN AR TRES W  DIS CAZ7
 SJG  BZ EPg      2328 29.70                              91                    
 AGPR BN ESg      2328 52.41                                                    
 AGPR BN  IAML    2329 24.97       502.7 0.75                                   
 SDDR BZ EPg      2329 29.05  149                                               
 MIDR BE  IAML    2329 53.48        48.3 2.00                                   
 AOPR BN  IAML    2329  8.07      1777.7 0.35                                   
 AOPR BZ EPg      2328 32.49   68                         91            210     
 AGPR BZ EPg      2328 36.34   75                         91            231     
 CRPR BZ EPg      2328 40.47   83                         91            261     
 PCDR BZ EPg      2328 52.14  129                         91            349     
 MIDR BZ EPg      2328 59.79  130                         90            403     
                                                                                
 2017  116 0308 55.6 R  18.775 -66.271112.8  DOM  5 0.2 3.0LDOM 3.8CDOM        1
 GAP=255        0.66      34.8    12.4 19.5  0.4086E+03 -0.2131E+03 -0.6566E+03E
 2017-01-16-0308-00S.MAN___100                                                 6
 OLDACT:UP  17-01-16 11:55 OP:FMGP STATUS:               ID:20170116030800     3
 OLDACT:ARG 17-01-16 11:16 OP:plst STATUS:               ID:20170116030800     3
 ACTION:UP  17-09-04 15:02 OP:jmlc STATUS:               ID:20170116030855     I
 STAT SP IPHASW D HRMM SECON CODA AMPLIT PERI AZIMU VELO AIN AR TRES W  DIS CAZ7
 AOPR BZ EPg       3 9 12.40   87                        145   -0.3710 69.6 227 
 AOPR BN ESg       3 9 25.12                             145   -0.3510 69.6 227 
 AOPR BN  IAML     3 9 26.58       615.8 0.25                          69.6 227 
 SJG  BZ EPg       3 9 13.21   80                        144    0.0910 74.5 170 
 SJG  BN ESg       3 9 26.15                             144    0.0810 74.5 170 
 AGPR BZ EPg       3 9 14.82   83                        136    0.2110 94.8 249 
 AGPR BN ESg       3 9 29.06                             136    0.4010 94.8 249 
 AGPR BN  IAML     3 9 31.39       283.5 0.45                          94.8 249 
 PCDR BZ EPg       3 9 27.62   97                        110    0.0310  225 263 
 MIDR BZ EPg       3 9 35.41  117                        104    0.0510  294 275 
 MIDR BN ESg       310  4.64                             104   -0.1310  294 275 
 MIDR BN  IAML     310  8.68        31.2 2.40                           294 275 
                                                                                
