 2017  131 0347 52.2 L  19.377 -73.698 50.1  DOM 18 0.9 4.4LDOM 4.5CDOM        1
 GAP=131        2.40      11.0     5.7 39.0  0.2521E+02 -0.2518E+02 -0.3094E+02E
 ACTION:UP  17-09-04 15:02 OP:jmlc STATUS:               ID:20170131034752     I
 OLDACT:UP  17-01-31 17:06 OP:AMMR STATUS:               ID:20170131034700     3
 OLDACT:UP  17-01-31 17:04 OP:AMMR STATUS:               ID:20170131034700     3
 OLDACT:UP  17-01-31 10:48 OP:AMMR STATUS:               ID:20170131034700     3
 OLDACT:ARG 17-01-31 10:20 OP:amrz STATUS:               ID:20170131034700     3
 2017-01-31-0347-00S.MAN___100                                                 6
 STAT SP IPHASW D HRMM SECON CODA AMPLIT PERI AZIMU VELO AIN AR TRES W  DIS CAZ7
 GTBY BZ EPg    C  348 14.27  264                        104   -1.0010  160 293 
 GTBY BN ESg    D  348 33.87                             104    1.5110  160 293 
 GTBY BE  IAML     348 36.20      2025.5 0.35                           160 293 
 GTBY BN  IAML     348 41.66      1853.3 1.20                           160 293 
 PAPH BZ EPg    D  348 15.90  160                        103   -1.1810  175 122 
 PAPH BE ESg       348 35.25                             103   -0.2610  175 122 
 PAPH BN  IAML     348 38.45     12144.5 0.24                           175 122 
 PAPH BE  IAML     348 46.45     10264.4 0.32                           175 122 
 REDR BZ EPg    D  348 19.52  138                        100   -1.8810  210  93 
 REDR BN ESg    D  348 42.20                             100   -0.8410  210  93 
 REDR BE  IAML     348 47.29      5822.8 0.25                           210  93 
 REDR BN  IAML     348 47.31      3308.0 0.20                           210  93 
 JIDR BZ EPg    D  348 21.53  170                        100   -0.7010  217 116 
 JIDR BE ESg    D  348 45.69                             100    1.2110  217 116 
 JIDR BN  IAML     348 57.36      3048.5 0.70                           217 116 
 JIDR BE  IAML     348 57.79      2955.4 0.50                           217 116 
 MCDR BZ EPg    D  348 22.16  174                        100   -0.5710  222  75 
 MCDR BE ESg    C  348 46.37                             100    1.0210  222  75 
 MCDR BN  IAML     348 50.21      2118.8 0.25                           222  75 
 MCDR BE  IAML     348 52.05      1517.2 0.25                           222  75 
 NEDR BZ EPg    D  348 27.33  177                         98    0.5110  255 112 
 NEDR BN  IAML     349  9.90      2090.6 0.70                           255 112 
 NEDR BE  IAML     349 13.00      2713.4 0.55                           255 112 
 SDDR BZ EPg    D  348 26.12  143                         98   -1.0210  257  99 
 SDDR BE ESg    C  348 53.61                              98    0.5910  257  99 
 SDDR BE  IAML     349 10.82      1913.0 1.05                           257  99 
 SDDR BN  IAML     349 13.36      1966.7 0.60                           257  99 
 PODR BZ EPg       348 31.78  168                         97    0.7310  288 117 
 PODR BN  IAML     349 21.64      1368.7 0.50                           288 117 
 PODR BE  IAML     349 21.65      1349.6 0.50                           288 117 
 LUDR BZ EPg       348 31.34  169                         97   -0.2410  294  78 
 LUDR BE  IAML     349  4.45      4432.5 0.35                           294  78 
 LUDR BN  IAML     349  5.27      6476.8 0.35                           294  78 
 SC01 BZ EPg       348 33.78  193                         96   -0.1010  312  88 
 ABDR BZ EPg       348 36.84  154                         96    0.5710  329 100 
 ABDR BE  IAML     349 23.46       844.0 0.65                           329 100 
 ABDR BN  IAML     349 37.45      1259.1 1.65                           329 100 
 GRTK BZ EPg    D  348 39.10  156                         95   -0.3210  357  48 
 GRTK BN  IAML     349 26.23       471.5 0.85                           357  48 
 GRTK BE  IAML     349 44.04       582.8 0.90                           357  48 
 BADR BZ EPg    C  348 42.30  155                         95    1.4310  368 107 
 BADR BE  IAML     349 41.03       796.0 0.50                           368 107 
 BADR BN  IAML     349 48.26       854.5 0.70                           368 107 
 NADR BZ EPg    C  348 45.83  209                         95    0.6410  404  90 
 MTDJ BZ EPg       348 47.58  182                         95   -0.3610  425 253 
 SMDR BZ EPg    C  348 53.39  157                         94   -0.5110  474  90 
 MIDR BZ EPg    C  348 55.91  152                         94   -0.0710  491  94 
 PCDR HZ EPg       349  6.41  196                         93    0.8410  568  99 
 PCDR BZ EPg       349  6.54  195                         92            568  99 
                                                                                
 2017  131 2213 34.9 L  18.342 -68.769117.0  DOM  7 0.8 2.5LDOM 3.6CDOM        1
 GAP=184        2.00      19.8     9.3 17.4  0.1362E+03  0.7283E+02  0.2167E+03E
 ACTION:UP  17-09-04 15:02 OP:jmlc STATUS:               ID:20170131221334     I
 OLDACT:ARG 17-01-31 22:37 OP:plst STATUS:               ID:20170131221200     3
 2017-01-31-2212-00S.MAN___100                                                 6
 STAT SP IPHASW D HRMM SECON CODA AMPLIT PERI AZIMU VELO AIN AR TRES W  DIS CAZ7
 PCDR BZ EPg      2213 49.86   74                        157   -1.1510 45.2  65 
 PCDR HZ ESg      2214  3.29                             157    0.3210 45.2  65 
 PCDR HZ  IAML    2214  4.10        48.5 0.58                          45.2  65 
 MIDR BZ EPg      2213 51.49   58                        144   -1.3710 76.9 337 
 MIDR BN ESg      2214  5.75                             144   -0.4310 76.9 337 
 MIDR BN  IAML    2214  9.54        47.4 0.15                          76.9 337 
 SMDR BZ EPg      2213 55.54   46                        132   -0.2510  114 337 
 SMDR BN ESg      2214 12.31                             132    1.0310  114 337 
 SMDR BN  IAML    2214 16.62        42.5 0.35                           114 337 
 AGPR BE  IAML    2214 28.42       106.7 2.65                           176  85 
 CRPR BZ EPg    C 2214  2.01   91                        117   -0.3810  182 102 
 CRPR BN ESg    D 2214 23.46                             117    0.6910  182 102 
 CRPR BN  IAML    2214 31.77        52.2 1.70                           182 102 
 ABDR BZ EPg      2214  5.07  135                        115    0.0910  203 285 
 ABDR BN ESg      2214 28.00                             115    0.7310  203 285 
 ABDR BN  IAML    2214 37.26        25.5 3.45                           203 285 
 AOPR BZ EPg      2214  6.49   78                        113    0.7110  213  90 
 AOPR BN  IAML    2214 36.04        59.7 0.25                           213  90 
                                                                                
 2017  2 1 2005 32.0 L  18.271 -70.705 31.0  DOM  6 0.5 2.9LDOM 3.3CDOM        1
 GAP=179        1.22       6.5     3.0  6.8  0.4431E+01  0.8908E-01 -0.2234E+02E
 ACTION:UP  17-09-04 15:02 OP:jmlc STATUS:               ID:20170201200532     I
 OLDACT:ARG 17-02-01 20:15 OP:AMMR STATUS:               ID:20170201200400     3
 2017-02-01-2004-00S.MAN___100                                                 6
 STAT SP IPHASW D HRMM SECON CODA AMPLIT PERI AZIMU VELO AIN AR TRES W  DIS CAZ7
 BADR BZ EP     D 20 5 40.00   53                        124    0.3110 39.0  69 
 BADR BE ES       20 5 46.48                             124    1.1010 39.0  69 
 BADR BN  IAML    20 5 47.71      1859.0 0.15                          39.0  69 
 BADR BE  IAML    20 5 48.14      1836.9 0.15                          39.0  69 
 ABDR BZ IP     D 20 5 42.08   55                         62   -0.4410 60.5   8 
 ABDR BE ES       20 5 50.50                              62    0.1910 60.5   8 
 ABDR BN  IAML    20 5 50.97      1137.5 0.15                          60.5   8 
 ABDR BE  IAML    20 5 51.06       815.0 0.25                          60.5   8 
 PODR BZ EPg    D 20 5 42.91   52                        110    0.2510 62.1 259 
 PODR BE  IAML    20 5 56.15       476.3 0.25                          62.1 259 
 PODR BN  IAML    20 5 56.88       410.3 0.20                          62.1 259 
 SDDR BZ EPg    C 20 5 47.35   61                         99   -0.4010 99.9 322 
 SDDR BE  IAML    20 5 59.64       153.3 0.35                          99.9 322 
 SDDR BN ESg    C 20 5 59.65                              99    0.2410 99.9 322 
 SDDR BN  IAML    20 6  2.86       201.1 0.30                          99.9 322 
 MIDR BZ EPg    C 20 6  0.13   71                         93   -0.4410  192  65 
 MIDR BN ESg    C 20 6 21.32                              93   -0.4010  192  65 
 MIDR BN  IAML    20 6 21.79       109.3 0.60                           192  65 
 MIDR BE  IAML    20 6 21.98       174.3 0.85                           192  65 
 HIDR BZ EPg      20 6  3.25   76                         93   -0.3610  213  80 
 HIDR BN ESg      20 6 26.97                              93   -0.0410  213  80 
 HIDR BE  IAML    20 6 28.81       123.6 0.20                           213  80 
 HIDR BN  IAML    20 6 30.56       126.1 0.25                           213  80 
                                                                                
 2017  2 2 0703 29.8 L  18.336 -69.517 22.9  DOM  5 0.4 2.1LDOM 3.2CDOM        1
 GAP=214        1.11      11.0     6.0118.3  0.5194E+02  0.6338E+03  0.1146E+04E
 ACTION:UP  17-09-04 15:02 OP:jmlc STATUS:               ID:20170202070329     I
 OLDACT:ARG 17-02-02 12:30 OP:AMMR STATUS:               ID:20170202070100     3
 2017-02-02-0701-00S.MAN___100                                                 6
 STAT SP IPHASW D HRMM SECON CODA AMPLIT PERI AZIMU VELO AIN AR TRES W  DIS CAZ7
 MIDR BZ EPg    D  7 3 43.97   49                        101    0.1910 87.0  34 
 MIDR BN ESg    D  7 3 54.27                             101    0.1310 87.0  34 
 MIDR BE  IAML     7 3 56.17        25.5 0.10                          87.0  34 
 MIDR BN  IAML     7 3 56.67        36.7 0.45                          87.0  34 
 SMDR BN ESg       7 3 59.82                              98   -0.6110  111  18 
 NADR BZ EPg    C  7 3 49.31   47                         97    0.8410  118 342 
 NADR BN  IAML     7 4  6.25         2.8 0.25                           118 342 
 NADR BE  IAML     7 4  9.96       134.2 2.95                           118 342 
 PCDR BZ EPg       7 3 48.85   53                         97   -0.1110  122  80 
 PCDR BE  IAML     7 4  3.01        86.3 3.25                           122  80 
 PCDR BE ESg       7 4  3.17                              97    0.0010  122  80 
 PCDR BN  IAML     7 4  5.21       240.5 2.10                           122  80 
 REDR BZ EPg       7 4  8.29   75                         93   -0.5210  253 295 
 REDR BN ESg       7 4 37.77                              93    0.0710  253 295 
 REDR BE  IAML     7 4 47.26        14.8 2.35                           253 295 
 REDR BN  IAML     7 4 48.73        16.2 2.95                           253 295 
                                                                                
 2017  2 2 1548 15.8 L  19.060 -65.954 31.3  DOM 10 1.5 3.7LDOM 3.9CDOM        1
 GAP=276        3.99      39.4    19.7423.9  0.3609E+03 -0.2817E+04 -0.1554E+05E
 ACTION:UP  17-09-04 15:02 OP:jmlc STATUS:               ID:20170202154815     I
 OLDACT:UP  17-02-02 16:10 OP:AMMR STATUS:               ID:20170202154800     3
 OLDACT:ARG 17-02-02 15:57 OP:AMMR STATUS:               ID:20170202154800     3
 2017-02-02-1548-00S.MAN___100                                                 6
 STAT SP IPHASW D HRMM SECON CODA AMPLIT PERI AZIMU VELO AIN AR TRES W  DIS CAZ7
 SJG  BZ EPg    D 1548 29.88   79                         90   -2.0310  107 191 
 SJG  BN ESg      1548 39.92                              90   -3.8810  107 191 
 AOPR BZ EPg    C 1548 32.49   71                         90   -0.4810  116 227 
 AOPR BN ESg    C 1548 44.49                              90   -1.1510  116 227 
 AOPR BN  IAML    1548 45.37     10020.5 0.20                           116 227 
 AOPR BE  IAML    1548 46.17     14316.0 0.25                           116 227 
 AGPR BZ EPg    C 1548 36.02   72                         90    0.2510  138 242 
 AGPR BN ESg    C 1548 51.14                              90    0.6410  138 242 
 AGPR BE  IAML    1548 51.56      2471.0 0.60                           138 242 
 AGPR BN  IAML    1548 51.61      3238.8 0.50                           138 242 
 CRPR BZ EPg      1548 38.20   72                         90   -1.1510  167 226 
 CRPR BN ESg    C 1548 55.16                              90   -1.5910  167 226 
 CRPR BN  IAML    1548 58.41      1382.8 0.25                           167 226 
 CRPR BE  IAML    1548 58.99      1733.2 0.20                           167 226 
 PCDR BZ EPg      1548 52.37   84                         90    1.1210  263 257 
 PCDR BE  IAML    1549 25.04       311.5 0.75                           263 257 
 PCDR BN  IAML    1549 26.39       490.8 0.45                           263 257 
 HIDR BZ EPg      1548 55.28   99                         90   -0.0310  296 260 
 HIDR BN ESg      1549 25.00                              90    0.5010  296 260 
 HIDR BE  IAML    1549 31.81       225.8 0.25                           296 260 
 HIDR BN  IAML    1549 33.91       330.0 0.25                           296 260 
 MIDR BZ EPg    C 1549  0.06  118                         90    0.9810  326 269 
 MIDR BN ESg      1549 32.18                              90    1.1110  326 269 
 MIDR BE  IAML    1549 33.25        96.6 0.55                           326 269 
 MIDR BN  IAML    1549 33.35        63.6 0.60                           326 269 
 SMDR BZ EPg      1549  1.92   86                         90    0.9710  341 275 
 SMDR BN ESg      1549 35.82                              90    1.4910  341 275 
 SMDR BN  IAML    1549 38.12        37.0 0.35                           341 275 
 SMDR BE  IAML    1549 47.25        41.8 1.15                           341 275 
 ABDR BZ EPg    C 1549 21.92  142                         90    1.8210  493 268 
 ABDR BN  IAML    1550 19.50        93.5 1.20                           493 268 
 ABDR BE  IAML    1550 21.53       104.3 0.30                           493 268 
 SDDR BZ EPg      1549 29.85  117                         90    1.4210  562 270 
 SDDR BN  IAML    1550 28.98        43.1 0.55                           562 270 
                                                                                
 2017  2 2 1614 46.6 L  18.129 -68.204130.7  DOM  9 0.6 2.9LDOM 3.6CDOM        1
 GAP=175        1.57      14.9     5.6 14.9  0.4312E+02  0.3501E+02  0.1439E+03E
 ACTION:UP  17-09-04 15:02 OP:jmlc STATUS:               ID:20170202161446     I
 OLDACT:ARG 17-02-02 16:20 OP:AMMR STATUS:               ID:20170202161400     3
 2017-02-02-1614-00S.MAN___100                                                 6
 STAT SP IPHASW D HRMM SECON CODA AMPLIT PERI AZIMU VELO AIN AR TRES W  DIS CAZ7
 PCDR BZ EPg    D 1615  3.67                             159   -0.6110 46.6 336 
 PCDR BE  IAML    1615 18.82       129.1 0.65                          46.6 336 
 PCDR BN  IAML    1615 20.06       211.3 0.45                          46.6 336 
 HIDR BZ EPg      1615  4.74   63                        148   -1.0110 74.5 314 
 HIDR BN ESg      1615 19.76                             148   -0.1910 74.5 314 
 HIDR BN  IAML    1615 21.44       334.9 0.25                          74.5 314 
 HIDR BE  IAML    1615 22.42       222.4 0.25                          74.5 314 
 CRPR BZ EPg      1615  8.69   86                        134   -0.3410  119  96 
 CRPR BN  IAML    1615 27.37        68.4 1.60                           119  96 
 MIDR BZ EPg    C 1615  9.32   58                        132   -0.6710  130 317 
 MIDR BN ESg      1615 27.28                             132   -0.0510  130 317 
 MIDR BE  IAML    1615 30.11       121.0 0.05                           130 317 
 MIDR BN  IAML    1615 31.83       118.9 0.35                           130 317 
 AOPR BZ EPg      1615 12.18   84                        126   -0.1710  155  81 
 AOPR BE ESg      1615 32.60                             126    1.1710  155  81 
 AOPR BE  IAML    1615 35.44       280.3 0.40                           155  81 
 AOPR BN  IAML    1615 35.51       151.5 0.25                           155  81 
 SMDR BZ EPg      1615 13.52                             124    0.2610  165 321 
 SMDR BN ESg      1615 33.35                             124    0.3310  165 321 
 SMDR BE  IAML    1615 38.24        63.7 0.50                           165 321 
 SMDR BN  IAML    1615 41.16        45.5 0.70                           165 321 
 BADR BZ EPg      1615 20.31   77                        115    0.2610  230 278 
 BADR BN ESg      1615 45.87                             115    1.0410  230 278 
 BADR BE  IAML    1615 53.86        96.2 0.35                           230 278 
 BADR BN  IAML    1615 57.32        68.5 0.60                           230 278 
 ABDR BZ EPg      1615 24.44  121                        111    0.1810  267 287 
 ABDR BE  IAML    1615 59.69        36.0 0.65                           267 287 
 ABDR BN  IAML    1616  0.14        32.3 1.05                           267 287 
 PODR BZ EPg      1615 30.47                             106   -0.2110  326 271 
 PODR BN  IAML    1616 10.26        40.1 1.40                           326 271 
                                                                                
