 2017  123 0409  1.7 L  18.159 -68.530155.4  DOM 13 1.0 3.8LDOM 4.0CDOM        1
 GAP=180        2.59      21.9     6.9 22.8  0.8979E+02  0.7870E+02  0.2907E+03E
      98.1      72.4     -78.3                               2    DOM PINV     F
      99.0      70.0     -63.0  2.0  2.0 10.0  0.1  0.1           DOM FPFIT    F
     154.8      15.5     134.9 38.8 51.0      0.12 0.55 0.00      DOM HASH     F
 ACTION:UP  17-09-04 15:02 OP:jmlc STATUS:               ID:20170123040901     I
 OLDACT:UP  17-01-23 23:49 OP:AMMR STATUS:               ID:20170123040900     3
 OLDACT:UP  17-01-23 04:38 OP:FMGP STATUS:               ID:20170123040900     3
 OLDACT:UP  17-01-23 04:37 OP:FMGP STATUS:               ID:20170123040900     3
 OLDACT:ARG 17-01-23 04:22 OP:plst STATUS:               ID:20170123040900     3
 2017-01-23-0409-00S.MAN___100                                                 6
 STAT SP IPHASW D HRMM SECON CODA AMPLIT PERI AZIMU VELO AIN AR TRES W  DIS CAZ7
 PCDR BZ EPg    D  4 9 20.62  111                        164   -1.4210 42.3  22 
 PCDR HZ  IAML     4 9 41.26       762.7 0.28                          42.3  22 
 MIDR BZ EPg    C  4 9 24.69   93                        143   -0.7410  107 329 
 MIDR BN ESg       4 9 42.95                             143   -0.0310  107 329 
 MIDR BN  IAML     4 9 43.67      1727.0 0.70                           107 329 
 SMDR BZ EPg    C  4 9 26.47   83                        135   -1.8010  143 331 
 SDD  BZ EPg    C  4 9 27.68  106                        133   -1.2210  151 283 
 AGPR BZ EPg    C  4 9 29.10  110                        132   -0.1110  154  77 
 AGPR BN ESg       4 9 49.86                             132    0.3010  154  77 
 AGPR BN  IAML     4 9 54.24      1100.0 0.60                           154  77 
 AOPR BZ EPg    C  4 9 31.86  101                        126   -0.5710  189  83 
 AOPR BN ESg       4 9 55.70                             126    0.5410  189  83 
 AOPR BN  IAML     4 9 59.58      1736.0 0.25                           189  83 
 NADR BZ EPg    C  4 9 31.60   92                        126   -1.1310  193 314 
 NADR BN ESg       4 9 56.29                             126    0.6110  193 314 
 NADR BN  IAML     410  4.13        66.0 0.35                           193 314 
 ABDR BZ EPg       4 9 37.12  100                        120    0.0410  233 288 
 ABDR BN ESg       410  3.32                             120    0.0710  233 288 
 ABDR BN  IAML     410  9.51       881.6 0.75                           233 288 
 SJG  BZ EPg    D  4 9 38.43  109                        118   -0.3110  252  91 
 SJG  BN ESg       410  7.90                             118    1.7710  252  91 
 SC01 BZ EPg    C  4 9 40.72  116                        116    0.0210  271 302 
 SC01 BN ESg       410 11.50                             116    1.9510  271 302 
 SC01 BN  IAML     410 19.07      1072.8 0.70                           271 302 
 SODR BZ EPg    C  4 9 41.92  103                        115    0.4310  279 310 
 PODR BZ EPg    D  4 9 42.98  123                        114   -0.0610  291 271 
 PODR BN ESg       410 13.78                             114    0.1710  291 271 
 PODR BN  IAML     410 18.00       544.1 0.25                           291 271 
 JIDR BZ EPg    D  4 9 51.13  108                        109    1.4910  353 277 
 JIDR BN  IAML     410 33.47        96.9 0.35                           353 277 
                                                                                
 2017  123 1654 57.8 L  19.235 -71.478 64.0  DOM  6 0.7 2.6LDOM 3.3CDOM        1
 GAP=140        1.92       7.6     9.8 14.1 -0.5304E+01 -0.3534E+02 -0.1136E+02E
 ACTION:UP  17-09-04 15:02 OP:jmlc STATUS:               ID:20170123165457     I
 OLDACT:ARG 17-01-23 18:45 OP:AMMR STATUS:               ID:20170123165300     3
 2017-01-23-1653-00S.MAN___100                                                 6
 STAT SP IPHASW D HRMM SECON CODA AMPLIT PERI AZIMU VELO AIN AR TRES W  DIS CAZ7
 SDDR BZ EPg      1655  7.03   53                        148   -0.7810 34.5 145 
 SDDR BN ESg      1655 15.11                             148   -0.1410 34.5 145 
 SDDR BN  IAML    1655 15.64       324.0 0.80                          34.5 145 
 SDDR BE  IAML    1655 15.98       208.3 0.70                          34.5 145 
 MADR BZ EPg      1655  9.15   53                        135   -0.0610 53.8  47 
 MADR BE  IAML    1655 23.24       355.2 0.15                          53.8  47 
 MADR BN  IAML    1655 23.29       455.2 0.15                          53.8  47 
 MCDR BZ EPg      1655 12.09   64                        124    0.8810 75.1 346 
 MCDR BE  IAML    1655 26.91       415.1 0.15                          75.1 346 
 MCDR BN  IAML    1655 30.46       569.6 0.45                          75.1 346 
 JIDR BZ EPg    D 1655 12.84   66                        118   -0.0310 91.1 206 
 JIDR BE  IAML    1655 26.16       198.0 0.30                          91.1 206 
 JIDR BN  IAML    1655 26.31        94.4 0.45                          91.1 206 
 PODR BZ EPg      1655 15.56   55                        110   -0.7310  120 170 
 PODR BN ESg      1655 31.11                             110    1.1110  120 170 
 PODR BE  IAML    1655 31.28        86.0 0.60                           120 170 
 PODR BN  IAML    1655 32.02        59.0 0.85                           120 170 
 MIDR BZ EPg      1655 31.35   91                         96   -1.0210  257  96 
 MIDR BE ESg      1655 58.76                              96    0.7710  257  96 
 MIDR BN ESg      1655 58.79                              96            257  96 
 MIDR BN  IAML    1655 59.21        23.7 1.15                           257  96 
 MIDR BE  IAML    1655 59.48        26.3 0.55                           257  96 
                                                                                
 2017  124 0614 14.1 L  18.457 -67.303 64.0  DOM  5 0.8 3.2LDOM 3.5CDOM        1
 GAP=151        1.98      13.5     8.9 17.0  0.4815E+02  0.9154E+02 -0.3528E+02E
 ACTION:UP  17-09-04 15:02 OP:jmlc STATUS:               ID:20170124061414     I
 OLDACT:ARG 17-01-24 11:02 OP:nr   STATUS:               ID:20170124061400     3
 2017-01-24-0614-00S.MAN___100                                                 6
 STAT SP IPHASW D HRMM SECON CODA AMPLIT PERI AZIMU VELO AIN AR TRES W  DIS CAZ7
 AGPR BZ EPg    D  614 22.52   61                        160   -0.8010 20.4  86 
 AGPR BE ESg    C  614 30.81                             160    0.6510 20.4  86 
 AGPR BE  IAML     614 31.21      6356.0 0.25                          20.4  86 
 AGPR BN  IAML     614 31.32      4851.9 0.20                          20.4  86 
 CRPR BZ EPg    C  614 26.66   66                        134    1.0610 54.7 156 
 CRPR BE ESg    C  614 34.39                             134    0.2710 54.7 156 
 CRPR BE  IAML     614 38.37       848.4 0.20                          54.7 156 
 CRPR BN  IAML     614 39.52       684.7 0.15                          54.7 156 
 AOPR BZ EPg    C  614 25.28   86                        132   -0.7610 59.3 102 
 AOPR BE ESg    C  614 34.64                             132   -0.2510 59.3 102 
 AOPR BN  IAML     614 35.58      2637.3 0.30                          59.3 102 
 AOPR BE  IAML     614 36.87      2905.6 0.35                          59.3 102 
 PCDR BZ EPg    D  614 31.14   76                        111   -0.6010  114 273 
 PCDR BE ESg    C  614 43.73                             111   -1.0810  114 273 
 PCDR BE  IAML     614 49.09       170.4 0.20                           114 273 
 PCDR BN  IAML     614 52.10       303.6 0.65                           114 273 
 SMDR BZ EPg    C  614 44.63   84                         98    0.5210  219 295 
 SMDR BE ESg    D  615  7.33                              98    0.9910  219 295 
 SMDR BN  IAML     615 13.13        63.7 0.40                           219 295 
 SMDR BE  IAML     615 17.38        58.3 0.50                           219 295 
                                                                                
 2017  124 1052 49.4 L  18.854 -72.675 20.1  DOM  4 0.7 2.3LDOM 3.1CDOM        1
 GAP=312        1.80      19.3    12.3 60.5 -0.3164E+02  0.7303E+02 -0.9781E+03E
 ACTION:UP  17-09-04 15:02 OP:jmlc STATUS:               ID:20170124105249     I
 OLDACT:ARG 17-01-24 11:03 OP:nr   STATUS:               ID:20170124105200     3
 2017-01-24-1052-00S.MAN___100                                                 6
 STAT SP IPHASW D HRMM SECON CODA AMPLIT PERI AZIMU VELO AIN AR TRES W  DIS CAZ7
 PAPH BZ EPg    C 1052 58.12   41                        106   -0.3310 54.0 133 
 PAPH BE ESg    C 1053  5.65                             106    0.5010 54.0 133 
 PAPH BE  IAML    1053  6.35       792.7 0.12                          54.0 133 
 PAPH BN  IAML    1053  6.49       465.1 0.16                          54.0 133 
 JIDR BZ EPg    C 1053  4.83   50                         97    0.2310 95.4 115 
 JIDR BE ESg    C 1053 14.34                              97   -1.5010 95.4 115 
 JIDR BN  IAML    1053 17.62        79.4 0.20                          95.4 115 
 JIDR BE  IAML    1053 17.70       106.3 0.20                          95.4 115 
 NEDR BZ EPg    C 1053 10.71   52                         95    0.3310  134 108 
 NEDR BE ESg    C 1053 26.89                              95    0.9810  134 108 
 NEDR BN  IAML    1053 29.34        43.3 0.55                           134 108 
 NEDR BE  IAML    1053 33.27        47.8 0.70                           134 108 
 SDDR BZ EPg    C 1053 12.08   54                         94   -0.2610  147  84 
 SDDR BE ESg    C 1053 29.38                              94    0.0610  147  84 
 SDDR BN  IAML    1053 31.69        23.5 0.40                           147  84 
 SDDR BE  IAML    1053 32.72        26.2 2.45                           147  84 
                                                                                
 2017  125 0642 23.1 L  19.645 -70.725 11.6  DOM 10 0.9 3.0LDOM 3.6CDOM        1
 GAP=129        2.38       4.3     3.4 19.1 -0.9471E+00 -0.4310E+01  0.6724E+01E
 ACTION:UP  17-09-04 15:02 OP:jmlc STATUS:               ID:20170125064223     I
 OLDACT:UP  17-01-25 20:33 OP:FME  STATUS:               ID:20170125064200     3
 OLDACT:ARG 17-01-25 20:12 OP:FME  STATUS:               ID:20170125064200     3
 2017-01-25-0642-00S.MAN___100                                                 6
 STAT SP IPHASW D HRMM SECON CODA AMPLIT PERI AZIMU VELO AIN AR TRES W  DIS CAZ7
 SC01 BZ IPg    D  642 27.92   97                        116    0.4810 24.1 181 
 SC01 BN ESg       642 30.57                             116   -0.0810 24.1 181 
 SC01 BN  IAML     642 37.33      1090.3 0.30                          24.1 181 
 SC01 BE  IAML     642 41.45      1045.3 0.35                          24.1 181 
 LUDR BZ EPg    C  642 28.69   75                        108   -0.5710 36.4 319 
 LUDR BN ESg    D  642 34.17                             108    0.3510 36.4 319 
 LUDR BE  IAML     642 36.20      5038.3 0.20                          36.4 319 
 LUDR BN  IAML     642 38.88      5179.0 0.25                          36.4 319 
 CADR BZ EPg       642 35.63   69                         98   -0.8910 82.4  88 
 CADR BN ESg       642 47.70                              98    1.2510 82.4  88 
 CADR BN  IAML     642 54.45       380.5 0.40                          82.4  88 
 CADR BE  IAML     642 59.53       468.5 0.75                          82.4  88 
 SDDR BZ EPg    D  642 37.54   92                         97   -0.9410 94.6 219 
 SDDR BN ESg    D  642 50.93                              97    1.0610 94.6 219 
 SDDR BN  IAML     642 51.60       974.4 0.25                          94.6 219 
 SDDR BE  IAML     642 52.44       714.2 0.50                          94.6 219 
 NADR BZ EPg    C  642 38.48   92                         97   -0.3410 96.7 109 
 NADR BN ESg       642 51.79                              97    1.3510 96.7 109 
 NADR BE  IAML     642 56.47       630.4 0.55                          96.7 109 
 NADR BN  IAML     642 57.78         7.8 0.25                          96.7 109 
 MCDR BZ EPg    D  642 38.39   79                         97   -1.1710  101 286 
 MCDR BN ESg    D  642 53.74                              97    2.0010  101 286 
 MCDR BE  IAML     642 56.81       694.0 0.30                           101 286 
 MCDR BN  IAML     642 57.12      1056.3 0.15                           101 286 
 NEDR BZ EPg    C  642 46.54   92                         94   -0.9110  151 211 
 NEDR BN ESg       643  5.62                              94    0.1510  151 211 
 NEDR BE  IAML     643  7.58       221.8 1.00                           151 211 
 NEDR BN  IAML     643  7.67       269.9 0.60                           151 211 
 SMDR BZ EPg       642 48.70   98                         94   -1.2610  166 103 
 SMDR BN ESg    D  643  9.88                              94    0.0510  166 103 
 SMDR BN  IAML     643 13.78        93.5 0.60                           166 103 
 SMDR BE  IAML     643 15.91        79.2 0.50                           166 103 
 PODR BZ EPg       642 51.10   94                         94   -0.1310  174 200 
 PODR BN ESg       643 12.48                              94    0.4410  174 200 
 PODR BN  IAML     643 16.88       406.7 0.45                           174 200 
 JIDR BE  IAML     643 14.40       428.4 0.65                           174 223 
 PODR BE  IAML     643 20.21       293.4 0.85                           174 200 
 JIDR BZ EPg    C  642 50.66   93                         94   -0.6010  174 223 
 JIDR BN ESg       643 11.87                              94   -0.2310  174 223 
 JIDR BN  IAML     643 14.31       412.0 1.00                           174 223 
                                                                                
 2017  125 2112 41.7 L  19.203 -69.793 30.9  DOM  7 0.8 2.3LDOM 3.3CDOM        1
 GAP=180        2.02      14.2     6.9 27.3 -0.4589E+02  0.9071E+02 -0.2571E+01E
 ACTION:UP  17-09-04 15:02 OP:jmlc STATUS:               ID:20170125211241     I
 OLDACT:ARG 17-01-25 21:53 OP:AMMR STATUS:               ID:20170125211100     3
 2017-01-25-2111-00S.MAN___100                                                 6
 STAT SP IPHASW D HRMM SECON CODA AMPLIT PERI AZIMU VELO AIN AR TRES W  DIS CAZ7
 NADR BE  IAML    2112 49.68      3770.2 0.30                          18.0 338 
 SMDR BZ EPg    D 2112 51.65   42                        107   -0.8810 64.3  81 
 SMDR BN ESg      2113  1.42                             107    0.8910 64.3  81 
 SMDR BE  IAML    2113  2.21        63.1 0.25                          64.3  81 
 SMDR BN  IAML    2113  4.84        54.9 0.55                          64.3  81 
 MIDR BZ EPg      2112 54.16   65                        102   -0.7710 81.9 107 
 MIDR BN ESg      2113  4.84                             102    0.1410 81.9 107 
 MIDR BN  IAML    2113  7.47        21.9 0.30                          81.9 107 
 ABDR BZ EPg    D 2112 56.74   73                         99   -0.6310 97.9 244 
 ABDR BN ESg    D 2113  9.18                              99    0.2210 97.9 244 
 ABDR BN  IAML    2113  9.60       144.2 0.40                          97.9 244 
 ABDR BE  IAML    2113 10.41       112.6 0.30                          97.9 244 
 BANI BZ EPg    C 2112 58.69   53                         98    0.1510  107 214 
 BANI BN ESg      2113 12.04                              98    1.0410  107 214 
 BANI BE  IAML    2113 12.20       144.6 0.55                           107 214 
 BANI BN  IAML    2113 13.29       134.0 0.20                           107 214 
 HIDR BZ EPg      2113  0.82   66                         95   -1.1310  132 121 
 SDDR BZ EPg      2113  6.78   84                         94    0.9710  159 261 
                                                                                
 2017  126 0234 14.0 L  18.653 -71.713 23.0  DOM  7 0.8 2.1LDOM 3.3CDOM 2.8WDOM1
 SPEC AVERAGE  MO 13.2 ST  2.5 OM  2.8 f0 5.16 R0.3756 AL 0.00 WI 20.0 MW  2.8 3
 SPEC SD       MO  0.3 ST  2.1 OM  1.0 f0 2.17 R0.1471 AL      WI      MW  0.2 3
 GAP=154        2.15       6.9     4.3 14.2 -0.4341E+01 -0.1731E+02 -0.3392E+02E
 SPEC JIDRBH Z MO 13.6 ST  1.2 OM  2.6 f0 3.15 R0.5203 AL-0.00 WI 20.0 MW  3.0 3
 SPEC JIDRBH Z T 23421 K 0.020 GD 32.6 VS 4.43 DE 3.34 Q0400.0 QA 0.70 Q1 1.00 3
 SPEC NEDRBH Z MO 13.2 ST  1.6 OM  2.1 f0 4.77 R0.3436 AL-0.00 WI 20.0 MW  2.7 3
 SPEC NEDRBH Z T 23423 K 0.020 GD 39.3 VS 4.43 DE 3.34 Q0400.0 QA 0.70 Q1 1.00 3
 SPEC PAPHBH Z MO 13.3 ST  6.7 OM  2.0 f0 6.88 R0.2382 AL-0.00 WI 20.0 MW  2.8 3
 SPEC PAPHBH Z T 23432 K 0.020 GD 67.6 VS 4.43 DE 3.34 Q0400.0 QA 0.70 Q1 1.00 3
 SPEC PODRBH Z MO 13.3 ST  1.6 OM  1.9 f0 4.47 R0.3667 AL-0.00 WI 20.0 MW  2.8 3
 SPEC PODRBH Z T 23433 K 0.020 GD 74.2 VS 4.43 DE 3.34 Q0400.0 QA 0.70 Q1 1.00 3
 SPEC ABDRBH Z MO 12.7 ST  3.3 OM  1.1 f0 9.00 R0.1821 AL-0.00 WI 20.0 MW  2.4 3
 SPEC ABDRBH Z T 23444 K 0.020 GD  118 VS 4.43 DE 3.34 Q0400.0 QA 0.70 Q1 1.00 3
 SPEC BANIBH Z MO 13.3 ST0.450 OM  1.7 f0 2.72 R0.6026 AL-0.00 WI 20.0 MW  2.8 3
 SPEC BANIBH Z T 23453 K 0.020 GD  146 VS 4.43 DE 3.34 Q0400.0 QA 0.70 Q1 1.00 3
 2017-01-26-0234-00S.MAN___100                                                 6
 OLDACT:UP  17-01-26 13:05 OP:FME  STATUS:               ID:20170126023400     3
 OLDACT:UP  17-01-26 11:56 OP:FME  STATUS:               ID:20170126023400     3
 OLDACT:ARG 17-01-26 08:25 OP:amrz STATUS:               ID:20170126023400     3
 ACTION:UP  17-09-04 15:02 OP:jmlc STATUS:               ID:20170126023414     I
 OLDACT:UP  17-01-26 13:14 OP:FME  STATUS:               ID:20170126023400     3
 STAT SP IPHASW D HRMM SECON CODA AMPLIT PERI AZIMU VELO AIN AR TRES W  DIS CAZ7
 JIDR BZ EP     D  234 17.88   45                        133   -1.2210 23.1 220 
 JIDR BN ES     D  234 22.52                             133   -0.3510 23.1 220 
 JIDR BZ  IAML     234 23.47       545.9 0.30                          23.1 220 
 NEDR BZ EPg    C  234 19.58   72                        123   -0.5710 31.9 126 
 NEDR BN ESg    D  234 25.34                             123    0.6310 31.9 126 
 NEDR BZ  IAML     234 26.01       159.9 0.30                          31.9 126 
 SDDR BZ EPg    C  234 22.85   64                        109   -0.8410 57.4  51 
 SDDR BN ESg    D  234 31.56                             109    0.7010 57.4  51 
 SDDR BZ  IAML     234 34.66        57.0 0.30                          57.4  51 
 PAPH BZ EPg    D  234 24.43   55                        106   -0.1210 63.6 257 
 PAPH BN ESg    D  234 34.11                             106    1.7410 63.6 257 
 PAPH BZ  IAML     234 36.63       216.4 0.56                          63.6 257 
 PODR BZ EPg    C  234 24.85   61                        105   -0.8210 70.5 140 
 PODR BN ESg    D  234 34.76                             105    0.4410 70.5 140 
 PODR BZ  IAML     234 36.56       105.8 0.30                          70.5 140 
 ABDR BZ EPg    D  234 31.80   72                         98   -0.6910  116  81 
 ABDR BN ESg    D  234 46.33                              98    0.1510  116  81 
 ABDR BZ  IAML     235  0.01        14.7 0.80                           116  81 
 BANI BZ EPg    C  234 36.75   79                         96   -0.0910  145 101 
 BANI BN ESg    D  234 54.79                              96    1.0510  145 101 
 BANI BZ  IAML     234 58.32        33.5 0.25                           145 101 
                                                                                
