 2017  126 0941 13.2 L  18.157 -68.614 31.1  DOM 11 0.8 3.9LDOM 3.5CDOM 4.1WDOM1
 SPEC AVERAGE  MO 15.2 ST 32.3 OM  3.7 f0 2.59 R0.9945 AL 0.00 WI 20.0 MW  4.1 3
 SPEC SD       MO  0.4 ST 55.7 OM  0.5 f0 1.70 R0.6878 AL      WI      MW  0.2 3
 GAP=183        2.13      20.4     7.2 33.3  0.8445E+02  0.9265E+02  0.3595E+03E
 SPEC PCDRBH Z MO 15.2 ST 15.9 OM  3.9 f0 2.26 R0.7367 AL-0.00 WI 20.0 MW  4.1 3
 SPEC PCDRBH Z T 94129 K 0.020 GD 55.9 VS 4.50 DE 3.40 Q0400.0 QA 0.70 Q1 1.00 3
 SPEC MIDRBH Z MO 14.5 ST 25.9 OM  3.0 f0 4.28 R0.3890 AL-0.00 WI 20.0 MW  3.6 3
 SPEC MIDRBH Z T 94139 K 0.020 GD  106 VS 4.50 DE 3.40 Q0400.0 QA 0.70 Q1 1.00 3
 SPEC CRPRBH Z MO 15.2 ST  8.9 OM  3.5 f0 1.77 R0.9407 AL-0.00 WI 20.0 MW  4.1 3
 SPEC CRPRBH Z T 94156 K 0.020 GD  164 VS 4.50 DE 3.40 Q0400.0 QA 0.70 Q1 1.00 3
 SPEC BANIBH Z MO 14.8 ST 29.9 OM  3.0 f0 3.71 R0.4488 AL-0.00 WI 20.0 MW  3.8 3
 SPEC BANIBH Z T 942 1 K 0.020 GD  189 VS 4.50 DE 3.40 Q0400.0 QA 0.70 Q1 1.00 3
 SPEC AOPRBH Z MO 14.9 ST187.8 OM  3.1 f0 6.22 R0.2677 AL-0.00 WI 20.0 MW  3.9 3
 SPEC AOPRBH Z T 942 5 K 0.020 GD  200 VS 4.50 DE 3.40 Q0400.0 QA 0.70 Q1 1.00 3
 SPEC CADRBH Z MO 15.8 ST  6.4 OM  3.9 f0 1.06 R1.5708 AL-0.00 WI 20.0 MW  4.4 3
 SPEC CADRBH Z T 94213 K 0.020 GD  220 VS 4.50 DE 3.40 Q0400.0 QA 0.70 Q1 1.00 3
 SPEC ABDRBH Z MO 15.2 ST  6.4 OM  3.3 f0 1.66 R1.0030 AL-0.00 WI 20.0 MW  4.1 3
 SPEC ABDRBH Z T 94214 K 0.020 GD  227 VS 4.50 DE 3.40 Q0400.0 QA 0.70 Q1 1.00 3
 SPEC SC01BH Z MO 15.2 ST  8.3 OM  3.3 f0 1.72 R0.9680 AL-0.00 WI 20.0 MW  4.1 3
 SPEC SC01BH Z T 94226 K 0.020 GD  264 VS 4.50 DE 3.40 Q0400.0 QA 0.70 Q1 1.00 3
 SPEC SDDRBH Z MO 15.7 ST  1.2 OM  3.7 f00.634 R2.6262 AL-0.00 WI 20.0 MW  4.4 3
 SPEC SDDRBH Z T 94236 K 0.020 GD  298 VS 4.50 DE 3.40 Q0400.0 QA 0.70 Q1 1.00 3
 SPEC MCDRBH Z MO 15.0 ST 10.9 OM  2.9 f0 2.28 R0.7303 AL-0.00 WI 20.0 MW  3.9 3
 SPEC MCDRBH Z T 94257 K 0.020 GD  373 VS 4.50 DE 3.40 Q0400.0 QA 0.70 Q1 1.00 3
 2017-01-26-0940-00S.MAN___100                                                 6
 OLDACT:ARG 17-01-26 14:04 OP:fmgp STATUS:               ID:20170126094000     3
 ACTION:UP  17-09-04 15:02 OP:jmlc STATUS:               ID:20170126094113     I
 OLDACT:UP  17-01-26 16:13 OP:FMGP STATUS:               ID:20170126094000     3
 OLDACT:UP  17-01-26 14:09 OP:FMGP STATUS:               ID:20170126094000     3
 STAT SP IPHASW D HRMM SECON CODA AMPLIT PERI AZIMU VELO AIN AR TRES W  DIS CAZ7
 PCDR BZ EPg       941 22.92   46                        129    0.3910 46.5  32 
 PCDR BZ  IAML     941 32.23      8160.4 0.25                          46.5  32 
 SPM1 HZ EPg       941 26.51   70                        113   -0.0810 79.9 294 
 SPM1 BZ  IAML     941 41.24      1494.3 0.38                          79.9 294 
 MIDR BZ EPg       941 28.50   50                        107   -1.0610  102 333 
 MIDR BZ  IAML     941 41.71      1482.1 0.45                           102 333 
 CRPR BZ EPg       941 38.07   64                         99    0.2610  162  96 
 CRPR BZ  IAML     942  0.62      1455.8 0.55                           162  96 
 BANI BZ EPg       941 40.86                              98   -0.4110  187 278 
 BANI BZ  IAML     942  8.76       938.2 0.35                           187 278 
 AOPR BZ EPg       941 43.26   77                         97    0.4710  198  84 
 AOPR BZ  IAML     942  9.53      2314.9 0.25                           198  84 
 CADR BZ EPg       941 45.23   93                         96   -0.3110  218 320 
 CADR BZ  IAML     942 14.54      1656.8 0.65                           218 320 
 ABDR BZ EPg       941 46.84   84                         96    0.1210  225 289 
 ABDR BZ  IAML     942 17.32       707.7 0.55                           225 289 
 SJG  BZ EPg       941 50.83   86                         95   -0.7910  261  91 
 SC01 BZ EPg       941 54.02  102                         95    2.0610  263 303 
 SC01 BZ  IAML     942 31.91       736.7 0.85                           263 303 
 SDDR BZ EPg       941 56.01   84                         94   -0.6610  297 288 
 SDDR BZ  IAML     942 39.47       577.1 0.65                           297 288 
                                                                                
 2017  126 2214 38.9 L  18.719 -70.345109.1  DOM  6 0.9 2.4LDOM 3.4CDOM        1
 GAP=105        2.30      12.4     8.9 20.7  0.1886E+02 -0.2159E+02 -0.9026E+02E
 ACTION:UP  17-09-04 15:02 OP:jmlc STATUS:               ID:20170126221438     I
 OLDACT:ARG 17-01-27 00:04 OP:plst STATUS:               ID:20170126221300     3
 2017-01-26-2213-00S.MAN___100                                                 6
 STAT SP IPHASW D HRMM SECON CODA AMPLIT PERI AZIMU VELO AIN AR TRES W  DIS CAZ7
 ABDR BZ EPg      2214 52.16   52                        163   -1.9610 31.4 289 
 ABDR BN  IAML    2215  4.22       111.0 0.25                          31.4 289 
 BANI BZ EPg      2214 53.77   69                        160   -0.2210 35.6 183 
 BANI BN ESg      2215  5.83                             160    0.7110 35.6 183 
 BANI BN  IAML    2215  7.92       122.8 0.15                          35.6 183 
 SDDR BZ EPg      2214 58.30   65                        132   -0.1510  104 286 
 SDDR BN ESg      2215 12.23                             132   -0.6510  104 286 
 SDDR BN  IAML    2215 16.59        30.6 0.40                           104 286 
 PODR BZ EPg      2215  1.05   71                        129    1.3210  116 238 
 PODR BN  IAML    2215 21.54        35.1 0.45                           116 238 
 MIDR BZ EPg      2215  1.56   92                        123   -0.1810  140  78 
 MIDR BN ESg      2215 18.77                             123    0.1610  140  78 
 MIDR BN  IAML    2215 21.25        11.7 0.20                           140  78 
 LUDR BZ EPg      2215  2.23   56                        122   -0.0310  145 334 
 LUDR BN ESg      2215 20.52                             122    1.0110  145 334 
 LUDR BN  IAML    2215 25.13       206.8 0.35                           145 334 
                                                                                
 2017  127 0754 35.2 L  18.793 -66.486138.5  DOM  5 0.9 2.8LDOM 3.8CDOM 3.2WDOM1
 SPEC AVERAGE  MO 13.8 ST  3.1 OM  4.0 f0 3.55 R0.4881 AL 0.00 WI 20.0 MW  3.2 3
 SPEC SD       MO  0.0 ST  1.5 OM  1.9 f00.715 R0.0982 AL      WI      MW  0.0 3
 GAP=293        2.36      41.9    18.4 29.2  0.4255E+03 -0.1050E+03 -0.9918E+03E
 SPEC AOPRBH Z MO 13.8 ST  4.5 OM  2.1 f0 4.27 R0.3899 AL-0.00 WI 20.0 MW  3.1 3
 SPEC AOPRBH Z T 755 7 K 0.020 GD  149 VS 4.50 DE 3.40 Q0400.0 QA 0.70 Q1 1.00 3
 SPEC CRPRBH Z MO 13.9 ST  1.6 OM  2.1 f0 2.84 R0.5863 AL-0.00 WI 20.0 MW  3.2 3
 SPEC CRPRBH Z T 75512 K 0.020 GD  175 VS 4.50 DE 3.40 Q0400.0 QA 0.70 Q1 1.00 3
 2017-01-27-0754-00S.MAN___100                                                 6
 OLDACT:ARG 17-01-27 10:14 OP:amrz STATUS:               ID:20170127075400     3
 ACTION:UP  17-09-04 15:02 OP:jmlc STATUS:               ID:20170127075435     I
 OLDACT:UP  17-01-27 22:45 OP:FME  STATUS:               ID:20170127075400     3
 OLDACT:UP  17-01-27 18:11 OP:FME  STATUS:               ID:20170127075400     3
 OLDACT:UP  17-01-27 18:00 OP:FME  STATUS:               ID:20170127075400     3
 OLDACT:UP  17-01-27 12:33 OP:FME  STATUS:               ID:20170127075400     3
 OLDACT:UP  17-01-27 11:51 OP:FME  STATUS:               ID:20170127075400     3
 STAT SP IPHASW D HRMM SECON CODA AMPLIT PERI AZIMU VELO AIN AR TRES W  DIS CAZ7
 AOPR BZ EPg       754 52.40   65                        156   -1.8910 56.9 210 
 AOPR BE ESg    C  755  9.13                             156    0.7310 56.9 210 
 AOPR BZ  IAML     755 17.48       112.1 0.25                          56.9 210 
 CRPR BZ EPg       754 57.58   55                        139    0.1110  108 216 
 CRPR BE ESg       755 13.75                             139   -0.1910  108 216 
 CRPR BZ  IAML     755 16.18        97.9 0.35                           108 216 
 PCDR BZ EPg       755  6.98   91                        120    0.8710  202 262 
 PCDR BN ESg       755 29.38                             120    0.4010  202 262 
 PCDR BN  IAML     755 29.39        72.9 3.20                           202 262 
 MIDR BZ EPg    C  755 14.10  115                        112    0.7410  271 275 
 MIDR BN ESg       755 41.53                             112   -0.0610  271 275 
 MIDR BN  IAML     755 49.81        18.1 2.05                           271 275 
 REDR BZ EPg       755 46.11  117                         99    0.7210  552 276 
 REDR BN  IAML     756 35.36        10.0 1.40                           552 276 
 REDR BN ESg       756 35.92                              99   -1.4010  552 276 
                                                                                
 2017  127 1010  2.6 L  19.124 -66.120 21.6  DOM  4 0.2 2.9LDOM 3.5CDOM 3.2WDOM1
 SPEC AVERAGE  MO 13.9 ST 13.9 OM  3.6 f0 5.57 R0.3043 AL 0.00 WI 20.0 MW  3.2 3
 SPEC SD       MO  0.2 ST  6.8 OM  1.3 f0 1.01 R0.0560 AL      WI      MW  0.1 3
 GAP=306        0.49       5.7     2.9 50.1  0.6996E+01 -0.5802E+02 -0.2348E+03E
 SPEC AOPRBH Z MO 14.1 ST 22.9 OM  2.6 f0 5.54 R0.2959 AL-0.00 WI 20.0 MW  3.4 3
 SPEC AOPRBH Z T101031 K 0.020 GD  111 VS 4.43 DE 3.34 Q0400.0 QA 0.70 Q1 1.00 3
 SPEC AGPRBH Z MO 13.6 ST 12.4 OM  2.0 f0 6.82 R0.2403 AL-0.00 WI 20.0 MW  3.0 3
 SPEC AGPRBH Z T101035 K 0.020 GD  128 VS 4.43 DE 3.34 Q0400.0 QA 0.70 Q1 1.00 3
 SPEC CRPRBH Z MO 13.9 ST  6.4 OM  2.2 f0 4.35 R0.3768 AL-0.00 WI 20.0 MW  3.2 3
 SPEC CRPRBH Z T101044 K 0.020 GD  162 VS 4.43 DE 3.34 Q0400.0 QA 0.70 Q1 1.00 3
 2017-01-27-1009-00S.MAN___100                                                 6
 OLDACT:UP  17-01-27 12:27 OP:FME  STATUS:               ID:20170127100900     3
 OLDACT:ARG 17-01-27 10:20 OP:amrz STATUS:               ID:20170127100900     3
 ACTION:UP  17-09-04 15:02 OP:jmlc STATUS:               ID:20170127101002     I
 OLDACT:UP  17-01-27 12:33 OP:FME  STATUS:               ID:20170127100900     3
 OLDACT:UP  17-01-27 12:31 OP:FME  STATUS:               ID:20170127100900     3
 STAT SP IPHASW D HRMM SECON CODA AMPLIT PERI AZIMU VELO AIN AR TRES W  DIS CAZ7
 AOPR BZ EPg    C 1010 20.07   65                         97    0.1410  109 218 
 AOPR BN ESg    C 1010 32.87                              97    0.1510  109 218 
 AOPR BZ  IAML    1010 34.52       862.8 0.30                           109 218 
 SJG  BZ EPg      1010 20.17   75                         97   -0.2410  112 182 
 SJG  BN ESg      1010 33.62                              97    0.0710  112 182 
 AGPR BZ EPg    D 1010 22.61   74                         96   -0.0210  127 235 
 AGPR BE ESg    C 1010 37.34                              96   -0.0810  127 235 
 AGPR BZ  IAML    1010 43.66        90.3 0.50                           127 235 
 CRPR BZ EPg    C 1010 27.89   88                         94    0.2110  161 220 
 CRPR BN ESg    C 1010 45.97                              94   -0.2410  161 220 
 CRPR BZ  IAML    1010 54.35       132.5 0.65                           161 220 
                                                                                
 2017  127 2145 23.4 L  19.317 -68.130 12.0  DOM  6 0.7 2.5LDOM 3.7CDOM        1
 GAP=228        1.75      21.6     4.2171.7  0.5570E+02 -0.3623E+03 -0.3389E+04E
 ACTION:UP  17-09-04 15:02 OP:jmlc STATUS:               ID:20170127214523     I
 OLDACT:ARG 17-01-27 22:19 OP:plst STATUS:               ID:20170127214500     3
 2017-01-27-2145-00S.MAN___100                                                 6
 STAT SP IPHASW D HRMM SECON CODA AMPLIT PERI AZIMU VELO AIN AR TRES W  DIS CAZ7
 PCDR BZ EPg      2145 38.56   70                         97    0.0410 92.8 197 
 PCDR HZ ESg      2145 49.32                              97   -0.3610 92.8 197 
 PCDR HZ  IAML    2145 53.25       112.5 0.38                          92.8 197 
 MIDR BZ EPg    C 2145 41.15   83                         97    0.9110  104 249 
 MIDR BN  IAML    2145 56.09        47.8 0.15                           104 249 
 AGPR BZ EPg      2145 45.60   76                         95   -0.9110  143 131 
 AGPR BN ESg      2146  4.32                              95    0.7210  143 131 
 AGPR BN  IAML    2146  6.05       134.0 1.50                           143 131 
 AOPR BZ EPg      2145 52.40   97                         94   -0.2110  181 126 
 AOPR BN ESg      2146 14.62                              94    0.4210  181 126 
 AOPR BN  IAML    2146 18.03        57.5 0.20                           181 126 
 BANI BZ EPg      2146  4.14  100                         93   -0.6510  256 247 
 BANI BN ESg      2146 34.98                              93   -0.4310  256 247 
 BANI BN  IAML    2146 46.20        74.5 0.35                           256 247 
 ABDR BZ EPg      2146  6.19  102                         93   -0.6310  269 258 
 ABDR BN ESg      2146 40.04                              93    1.1110  269 258 
 ABDR BN  IAML    2146 43.37        28.9 0.35                           269 258 
                                                                                
 2017  127 2234 30.6 L  19.251 -69.790 23.0  DOM 12 0.8 2.6LDOM 3.5CDOM        1
 GAP=105        2.19       6.0     3.2 11.3  0.2517E+01  0.3211E+01  0.3763E+02E
 ACTION:UP  17-09-04 15:02 OP:jmlc STATUS:               ID:20170127223430     I
 OLDACT:ARG 17-01-27 22:48 OP:plst STATUS:               ID:20170127223400     3
 2017-01-27-2234-00S.MAN___100                                                 6
 STAT SP IPHASW D HRMM SECON CODA AMPLIT PERI AZIMU VELO AIN AR TRES W  DIS CAZ7
 NADR BZ EPg      2234 34.01   58                        149   -0.7810 13.4 329 
 NADR BN ESg      2234 37.84                             149   -0.0310 13.4 329 
 NADR BN  IAML    2234 38.19        94.8 0.35                          13.4 329 
 CADR BZ EPg      2234 38.69   56                        112   -0.3310 48.6 341 
 CADR BN ESg      2234 46.22                             112    0.9710 48.6 341 
 CADR BN  IAML    2234 46.94       705.2 0.30                          48.6 341 
 SMDR BZ EPg      2234 40.35   51                        106   -0.8010 63.5  86 
 SMDR BN ESg      2234 49.95                             106    1.0010 63.5  86 
 SMDR BN  IAML    2234 50.59       174.0 0.40                          63.5  86 
 MIDR BZ EPg      2234 43.20   80                        101   -0.8810 83.4 111 
 MIDR BN ESg      2234 53.97                             101   -0.0810 83.4 111 
 MIDR BN  IAML    2234 56.07       123.9 0.25                          83.4 111 
 ABDR BZ EPg      2234 46.43   81                        100   -0.3910  101 241 
 ABDR BN  IAML    2235  4.09       124.3 0.35                           101 241 
 BANI BZ EPg      2234 48.53   72                         98    0.1210  112 213 
 BANI BN ESg      2235  2.66                              98    1.0810  112 213 
 BANI BN  IAML    2235  3.64       204.0 0.35                           112 213 
 LUDR BZ EPg      2234 53.32   73                         96    0.5610  141 300 
 LUDR BN  IAML    2235 14.86       759.4 0.40                           141 300 
 SDDR BZ EPg      2234 55.07  107                         95   -0.6510  161 259 
 SDDR BN ESg      2235 13.70                              95   -0.6010  161 259 
 SDDR BN  IAML    2235 21.50        62.1 0.55                           161 259 
 PCDR BZ EPg      2234 56.79   82                         95   -0.2310  169 119 
 PCDR HZ  IAML    2235 20.37        91.1 1.66                           169 119 
 PODR BZ EPg      2235  1.65   80                         94    0.2410  198 233 
 PODR BN  IAML    2235 31.53        27.4 0.45                           198 233 
 REDR BZ EPg      2235  1.69   89                         94   -0.1310  201 271 
 REDR BN ESg      2235 25.70                              94    0.8010  201 271 
 REDR BN  IAML    2235 26.69        66.7 0.15                           201 271 
 AOPR BZ EPg      2235 20.52   98                         92   -1.6310  335 107 
 AOPR BN ESg      2236  2.04                              92    1.7610  335 107 
 AOPR BN  IAML    2236  5.71        47.5 0.70                           335 107 
                                                                                
 2017  128 0705  2.2 L  19.228 -68.109  1.4  DOM  7 0.7 2.8LDOM 3.7CDOM        1
 GAP=209        1.99      16.2     8.1 96.6  0.1183E+03 -0.6612E+03 -0.1323E+04E
 ACTION:UP  17-09-04 15:02 OP:jmlc STATUS:               ID:20170128070502     I
 OLDACT:ARG 17-01-28 11:07 OP:nr   STATUS:               ID:20170128070500     3
 2017-01-28-0705-00S.MAN___100                                                 6
 STAT SP IPHASW D HRMM SECON CODA AMPLIT PERI AZIMU VELO AIN AR TRES W  DIS CAZ7
 PCDR BZ EPg    D  7 5 16.17   77                         91    0.4410 84.1 200 
 PCDR BE ESg    D  7 5 25.96                              91    0.1910 84.1 200 
 PCDR BE  IAML     7 5 31.22       214.1 0.30                          84.1 200 
 PCDR BN  IAML     7 5 34.44       603.1 0.90                          84.1 200 
 MIDR BZ EPg    C  7 5 18.65   77                         91   -0.0810  103 255 
 MIDR BE ESg    D  7 5 32.51                              91    1.5310  103 255 
 MIDR BE  IAML     7 5 33.23       189.7 0.15                           103 255 
 MIDR BN  IAML     7 5 33.88       149.0 0.35                           103 255 
 SMDR BZ EPg    D  7 5 20.53   86                         91    0.0210  114 274 
 SMDR BE ESg    C  7 5 34.47                              91    0.3910  114 274 
 SMDR BE  IAML     7 5 36.91        92.8 1.30                           114 274 
 SMDR BN  IAML     7 5 43.77        79.9 0.50                           114 274 
 AGPR BZ EPg    C  7 5 24.51   87                         91    0.6310  135 128 
 AGPR BE ESg    C  7 5 38.67                              91   -1.2710  135 128 
 AGPR BE  IAML     7 5 43.82       309.8 0.35                           135 128 
 AGPR BN  IAML     7 5 46.59       303.2 0.20                           135 128 
 AOPR BZ EPg    C  7 5 30.03  107                         91   -0.0410  173 124 
 AOPR BE ESg    C  7 5 50.81                              91    0.1010  173 124 
 AOPR BE  IAML     7 5 59.68       474.3 0.30                           173 124 
 AOPR BN  IAML     7 6  2.22       166.8 0.30                           173 124 
 CRPR BZ EPg    C  7 5 29.70   91                         90   -0.3410  173 141 
 AOPR BE E      C  7 5 52.54                                            173 124 
 CRPR BE ESg    D  7 5 50.54                              90   -0.1210  173 141 
 CRPR BN  IAML     7 5 55.10       196.1 0.50                           173 141 
 CRPR BE  IAML     7 5 58.44       135.4 0.30                           173 141 
 NADR BZ EPg    C  7 5 30.22   91                         90   -1.6610  184 275 
 NADR BE ESg    D  7 5 54.08                              90    0.2110  184 275 
 NADR BE  IAML     7 6  1.71       418.6 0.45                           184 275 
 NADR BN  IAML     7 6  2.09         7.1 0.30                           184 275 
                                                                                
