 2017  1 1 0432 27.5 L  18.184 -65.547 11.8  DOM  4 0.4 2.8LDOM 3.6CDOM        1
 GAP=342        0.95      12.0     7.3 35.1  0.2803E+02 -0.1437E+03 -0.2174E+03E
 ACTION:UP  17-09-04 15:02 OP:jmlc STATUS:               ID:20170101043227     I
 OLDACT:ARG 17-01-01 10:39 OP:nr   STATUS:               ID:20170101043200     3
 2017-01-01-0432-00S.MAN___096                                                 6
 STAT SP IPHASW D HRMM SECON CODA AMPLIT PERI AZIMU VELO AIN AR TRES W  DIS CAZ7
 SJG  BZ EPg    C  432 38.17   96                        101    0.0610 64.3 263 
 SJG  BE ESg    D  432 46.40                             101    0.4810 64.3 263 
 AOPR BZ EPg    D  432 48.65   73                         95    0.2210  129 278 
 AOPR BE ESg    C  433  3.53                              95   -0.3510  129 278 
 AOPR BE  IAML     433 11.67       551.5 0.35                           129 278 
 CRPR BZ EPg    D  432 53.77   83                         94   -0.3610  164 263 
 CRPR BE ESg    D  433 13.70                              94   -0.1110  164 263 
 CRPR BE  IAML     433 17.66        84.6 1.50                           164 263 
 AGPR BZ EPg    D  432 55.26   69                         94    0.5110  168 281 
 AGPR BE ESg    C  433 14.42                              94   -0.4610  168 281 
 AGPR BE  IAML     433 20.74        83.5 0.50                           168 281 
                                                                                
 2017  1 1 0457 35.0 L  18.086 -70.797 19.6  DOM  5 0.4 2.0LDOM 3.2CDOM        1
 GAP=308        1.11       6.0     8.2 25.0  0.2363E+01 -0.1265E+03 -0.5629E+02E
 ACTION:UP  17-09-04 15:02 OP:jmlc STATUS:               ID:20170101045735     I
 OLDACT:ARG 17-01-01 10:40 OP:nr   STATUS:               ID:20170101045700     3
 2017-01-01-0457-00S.MAN___096                                                 6
 STAT SP IPHASW D HRMM SECON CODA AMPLIT PERI AZIMU VELO AIN AR TRES W  DIS CAZ7
 PODR BZ EPg    C  457 43.68   49                        107   -0.2110 52.1 280 
 PODR BE ESg    C  457 50.71                             107    0.2710 52.1 280 
 PODR BE  IAML     457 53.19       197.4 0.25                          52.1 280 
 NEDR BZ EPg    C  457 48.38   51                         98   -0.0610 83.5 302 
 NEDR BE ESg    C  457 57.51                              98   -0.8510 83.5 302 
 NEDR BE  IAML     458  2.97        43.7 0.35                          83.5 302 
 SDDR BZ EPg    C  457 52.63   55                         96   -0.1010  112 332 
 SDDR BE ESg    D  458  6.39                              96    0.5610  112 332 
 SDDR BE  IAML     458 18.54        15.3 0.70                           112 332 
 JIDR BZ EPg    C  457 53.99   59                         95   -0.0210  121 292 
 JIDR BE ESg       458  8.64                              95    0.5910  121 292 
 JIDR BE  IAML     458 13.72        36.8 0.75                           121 292 
 REDR BZ EPg    C  458  0.66   66                         93    0.2310  163 324 
 REDR BE ESg    C  458 18.82                              93   -0.4010  163 324 
 REDR BE  IAML     458 21.28        46.1 0.25                           163 324 
                                                                                
 2017  1 1 1023 21.1 L  19.502 -69.527 31.1  DOM  5 0.6 2.1LDOM 3.2CDOM        1
 GAP=217        1.55      18.7     7.8 45.2  0.1189E+03  0.2202E+03  0.2772E+03E
 ACTION:UP  17-09-04 15:02 OP:jmlc STATUS:               ID:20170101102321     I
 OLDACT:ARG 17-01-01 10:41 OP:nr   STATUS:               ID:20170101102200     3
 2017-01-01-1022-00S.MAN___096                                                 6
 STAT SP IPHASW D HRMM SECON CODA AMPLIT PERI AZIMU VELO AIN AR TRES W  DIS CAZ7
 SMDR BZ EPg    C 1023 29.74   48                        102    0.6610 42.6 123 
 SMDR BE ESg    D 1023 34.51                             102   -0.5010 42.6 123 
 SMDR BE  IAML    1023 40.20        79.3 0.35                          42.6 123 
 MIDR BZ EPg    C 1023 32.82   51                         90   -0.4210 76.2 139 
 MIDR BE ESg    C 1023 42.83                              90    0.5710 76.2 139 
 MIDR BE  IAML    1023 45.81        19.2 0.55                          76.2 139 
 SC01 BZ EPg    C 1023 38.89   61                         90   -0.6010  126 266 
 SC01 BE ESg    C 1023 54.26                              90    1.1210  126 266 
 SC01 BE  IAML    1023 56.33        69.1 0.30                           126 266 
 SDDR BZ EPg    C 1023 47.76   60                         90   -0.2010  194 253 
 SDDR BE ESg    C 1024  7.15                              90   -0.7110  194 253 
 SDDR BE  IAML    1024 15.85        16.9 0.35                           194 253 
 REDR BZ EPg    D 1023 52.28   53                         90   -0.1110  230 264 
 REDR BE ESg    D 1024 15.79                              90    0.2010  230 264 
 REDR BE  IAML    1024 19.40        90.5 0.20                           230 264 
                                                                                
 2017  1 1 2137 34.3 L  18.266 -67.669 23.0  DOM  6 0.7 2.9LDOM 4.0CDOM        1
 GAP=197        1.96      26.8     5.6 46.6  0.1044E+03  0.1947E+03  0.8417E+03E
 ACTION:UP  17-09-04 15:02 OP:jmlc STATUS:               ID:20170101213734     I
 OLDACT:ARG 17-01-01 23:30 OP:plst STATUS:               ID:20170101213700     3
 2017-01-01-2137-00S.MAN___096                                                 6
 STAT SP IPHASW D HRMM SECON CODA AMPLIT PERI AZIMU VELO AIN AR TRES W  DIS CAZ7
 AGPR BZ EPg      2137 44.43  111                        106   -0.3310 63.2  69 
 AGPR BN ESg      2137 52.51                             106   -0.0310 63.2  69 
 AGPR BN  IAML    2137 53.31      1138.5 0.35                          63.2  69 
 PCDR BZ EPg      2137 48.97  115                        102    1.7310 80.1 290 
 PCDR HZ ESg      2137 56.36                             102   -0.4810 80.1 290 
 PCDR HZ  IAML    2138  3.87       202.6 0.38                          80.1 290 
 AOPR BZ EPg      2137 49.25  127                         99   -0.5510 97.2  85 
 AOPR BN ESg      2138  1.94                              99    0.6410 97.2  85 
 AOPR BN  IAML    2138 13.16       358.9 0.25                          97.2  85 
 MIDR BZ EPg      2137 59.02  112                         95   -1.1010  166 299 
 MIDR BN ESg      2138 19.72                              95    0.4510  166 299 
 MIDR BN  IAML    2138 21.86        77.8 0.25                           166 299 
 ABDR BZ EPg      2138 23.13  121                         92   -0.1610  318 281 
 ABDR BN  IAML    2139  8.74        75.8 0.55                           318 281 
 SDDR BZ EPg      2138 33.92  125                         92   -0.1710  390 282 
 SDDR BN  IAML    2139 28.02        47.0 0.45                           390 282 
                                                                                
 2017  1 2 1038 31.4 L  18.676 -70.316 12.1  DOM 11 0.7 2.3LDOM 3.5CDOM 2.8WDOM1
 SPEC AVERAGE  MO 13.2 ST  1.4 OM  2.0 f0 3.98 R1.6540 AL 0.00 WI 20.0 MW  2.8 3
 SPEC SD       MO  0.8 ST  1.6 OM  0.7 f0 2.90 R3.0271 AL      WI      MW  0.5 3
 GAP=141        1.98       4.7     2.4 16.1  0.1821E+01 -0.3018E+01  0.2257E+02E
 SPEC ABDRBH Z MO 12.6 ST  5.0 OM  1.8 f0 9.35 R0.1476 AL-0.00 WI 20.0 MW  2.3 3
 SPEC ABDRBH Z T103840 K 0.020 GD 38.0 VS 3.73 DE 2.83 Q0400.0 QA 0.70 Q1 1.00 3
 SPEC SC01BH Z MO 13.3 ST0.995 OM  2.1 f0 3.19 R0.4326 AL-0.00 WI 20.0 MW  2.8 3
 SPEC SC01BH Z T103857 K 0.020 GD 94.6 VS 3.73 DE 2.83 Q0400.0 QA 0.70 Q1 1.00 3
 SPEC SDDRBH Z MO 12.8 ST0.892 OM  1.6 f0 4.34 R0.3180 AL-0.00 WI 20.0 MW  2.5 3
 SPEC SDDRBH Z T1039 1 K 0.020 GD  106 VS 3.73 DE 2.83 Q0400.0 QA 0.70 Q1 1.00 3
 SPEC NEDRBH Z MO 12.8 ST  1.2 OM  1.5 f0 5.04 R0.2738 AL-0.00 WI 20.0 MW  2.4 3
 SPEC NEDRBH Z T1039 4 K 0.020 GD  117 VS 3.73 DE 2.83 Q0400.0 QA 0.70 Q1 1.00 3
 SPEC SMDRBH Z MO 12.9 ST0.120 OM  1.6 f0 2.09 R0.6603 AL-0.00 WI 20.0 MW  2.5 3
 SPEC SMDRBH Z T1039 8 K 0.020 GD  127 VS 3.73 DE 2.83 Q0400.0 QA 0.70 Q1 1.00 3
 SPEC MIDRBH Z MO 14.2 ST0.046 OM  2.9 f00.561 R2.4601 AL-0.00 WI 20.0 MW  3.4 3
 SPEC MIDRBH Z T1039 7 K 0.020 GD  128 VS 3.73 DE 2.83 Q0400.0 QA 0.70 Q1 1.00 3
 SPEC REDRBH Z MO 12.6 ST  3.5 OM  1.3 f0 7.78 R0.1774 AL-0.00 WI 20.0 MW  2.4 3
 SPEC REDRBH Z T103915 K 0.020 GD  144 VS 3.73 DE 2.83 Q0400.0 QA 0.70 Q1 1.00 3
 SPEC JIDRBH Z MO 15.1 ST0.005 OM  3.7 f00.138 R 10.00 AL-0.00 WI 20.0 MW  4.0 3
 SPEC JIDRBH Z T103916 K 0.020 GD  147 VS 3.73 DE 2.83 Q0400.0 QA 0.70 Q1 1.00 3
 SPEC PCDRBH Z MO 13.0 ST0.659 OM  1.6 f0 3.32 R0.4157 AL-0.00 WI 20.0 MW  2.6 3
 SPEC PCDRBH Z T103927 K 0.020 GD  175 VS 3.73 DE 2.83 Q0400.0 QA 0.70 Q1 1.00 3
 2017-01-02-1037-00S.MAN___096                                                 6
 OLDACT:UP  17-01-02 11:49 OP:AMMR STATUS:               ID:20170102103700     3
 OLDACT:ARG 17-01-02 11:40 OP:plst STATUS:               ID:20170102103700     3
 ACTION:UP  17-09-04 15:02 OP:jmlc STATUS:               ID:20170102103831     I
 OLDACT:UP  17-01-02 11:50 OP:AMMR STATUS:               ID:20170102103700     3
 STAT SP IPHASW D HRMM SECON CODA AMPLIT PERI AZIMU VELO AIN AR TRES W  DIS CAZ7
 BON1 HZ EPg      1038 36.83   79                        112    0.1110 30.6 344 
 BON1 HN ESg      1038 40.82                             112    0.1610 30.6 344 
 BON1 HN  IAML    1038 42.33       987.9 0.18                          30.6 344 
 ABDR BZ EPg      1038 37.33   52                        112   -0.3610 36.0 295 
 ABDR BN ESg      1038 42.10                             112   -0.2510 36.0 295 
 ABDR BN  IAML    1038 45.79       516.3 0.25                          36.0 295 
 ABDR HZ  IAML    1038 46.65       138.6 0.30                          36.0 295 
 SDD  BZ EPg      1038 39.97   66                        104    0.5610 48.2 119 
 SDD  BN ESg      1038 46.21                             104    0.8710 48.2 119 
 SDD  BN  IAML    1038 48.19       159.3 0.25                          48.2 119 
 SDD  HZ  IAML    1038 48.61        66.3 0.30                          48.2 119 
 SC01 BZ EPg      1038 46.21   70                         97   -0.4410 93.8 333 
 SC01 BN ESg      1038 58.75                              97    0.8110 93.8 333 
 SC01 BN  IAML    1038 59.32       141.5 0.20                          93.8 333 
 SC01 HZ  IAML    1039  2.30        64.6 0.55                          93.8 333 
 SDDR BZ EPg      1038 48.70   82                         97   -0.2410  108 288 
 SDDR BN ESg      1039  3.03                              97    1.1110  108 288 
 SDDR HZ  IAML    1039  6.18        36.7 0.25                           108 288 
 SDDR BN  IAML    1039 11.53        77.1 0.45                           108 288 
 NEDR BZ EPg      1038 49.90   64                         96   -1.5010  123 260 
 NEDR BN ESg      1039  6.47                              96    0.2710  123 260 
 NEDR BN  IAML    1039  8.04        49.5 0.35                           123 260 
 NEDR HZ  IAML    1039  8.32        38.3 1.15                           123 260 
 SMDR BZ EPg      1038 53.35   57                         95   -0.2010  137  60 
 SMDR BN ESg      1039 10.24                              95    0.2910  137  60 
 SMDR BN  IAML    1039 10.52        58.0 0.90                           137  60 
 SMDR HZ  IAML    1039 13.44        18.1 0.30                           137  60 
 MIDR BZ EPg      1038 53.10   87                         95   -0.6010  138  75 
 MIDR BN ESg      1039  9.13                              95   -1.0710  138  75 
 MIDR BN  IAML    1039  9.49       118.9 1.10                           138  75 
 MIDR HZ  IAML    1039  9.56        81.5 0.45                           138  75 
 REDR BZ EPg      1038 56.86  108                         95   -0.4810  160 295 
 REDR BN ESg      1039 16.72                              95    0.1910  160 295 
 REDR BN  IAML    1039 18.81       157.1 0.25                           160 295 
 REDR HZ  IAML    1039 20.00        40.2 0.30                           160 295 
 JIDR BZ EPg      1038 56.59   86                         94   -1.2510  164 263 
 JIDR BN ESg      1039 18.31                              94    0.9010  164 263 
 JIDR BN  IAML    1039 21.09        32.5 0.45                           164 263 
 JIDR HZ  IAML    1039 25.16        62.9 2.50                           164 263 
 PCDR BZ EPg      1039  5.79   72                         93    1.2710  205  95 
 PCDR HZ ESg      1039 28.85                              93   -0.1810  205  95 
 PCDR HZ  IAML    1040  6.13       186.8 1.40                           205  95 
                                                                                
 2017  1 2 2238 41.3 L  18.028 -71.517 30.8  DOM  5 0.2 1.7LDOM 3.2CDOM 2.6WDOM1
 SPEC AVERAGE  MO 13.0 ST  1.4 OM  2.4 f0 5.24 R0.3274 AL 0.00 WI 20.0 MW  2.6 3
 SPEC SD       MO  0.1 ST0.481 OM  0.7 f00.844 R0.0589 AL      WI      MW  0.1 3
 GAP=267        0.50       3.4     3.1  4.3  0.4476E+01  0.7164E+01 -0.8936E-01E
 SPEC PODRBH Z MO 12.8 ST  1.4 OM  1.7 f0 6.00 R0.2775 AL-0.00 WI 20.0 MW  2.5 3
 SPEC PODRBH Z T223851 K 0.020 GD 42.4 VS 4.50 DE 3.40 Q0400.0 QA 0.70 Q1 1.00 3
 SPEC NEDRBH Z MO 13.1 ST0.774 OM  1.8 f0 4.06 R0.4101 AL-0.00 WI 20.0 MW  2.7 3
 SPEC NEDRBH Z T223855 K 0.020 GD 59.2 VS 4.50 DE 3.40 Q0400.0 QA 0.70 Q1 1.00 3
 SPEC JIDRBH Z MO 13.1 ST  2.0 OM  1.7 f0 5.65 R0.2947 AL-0.00 WI 20.0 MW  2.6 3
 SPEC JIDRBH Z T223858 K 0.020 GD 69.8 VS 4.50 DE 3.40 Q0400.0 QA 0.70 Q1 1.00 3
 2017-01-02-2237-00S.MAN___096                                                 6
 OLDACT:ARG 17-01-02 22:47 OP:fmgp STATUS:               ID:20170102223700     3
 ACTION:UP  17-09-04 15:02 OP:jmlc STATUS:               ID:20170102223841     I
 OLDACT:UP  17-01-02 22:56 OP:FMGP STATUS:               ID:20170102223700     3
 STAT SP IPHASW D HRMM SECON CODA AMPLIT PERI AZIMU VELO AIN AR TRES W  DIS CAZ7
 PODR BZ EPg      2238 47.73   51                        134   -0.2410 29.2  58 
 PODR BN ESg    C 2238 53.03                             134    0.1210 29.2  58 
 PODR BZ  IAML    2238 57.35        64.1 1.10                          29.2  58 
 NEDR BZ EPg    D 2238 50.16   50                        114   -0.1510 50.6   6 
 NEDR BN ESg    C 2238 56.98                             114    0.0110 50.6   6 
 NEDR BZ  IAML    2239  1.95        69.6 0.35                          50.6   6 
 JIDR BZ EPg    D 2238 51.92   58                        108    0.0410 62.6 325 
 JIDR BN ESg      2238 59.80                             108    0.0810 62.6 325 
 JIDR BZ  IAML    2239  0.38        92.5 0.20                          62.6 325 
 SDDR BZ EPg    C 2238 58.53   70                         97    0.3510  108  13 
 SDDR BE ESg  4 D 2239 11.17                              97    0.49 0  108  13 
 SDDR BZ  IAML    2239 42.85        13.7 1.75                           108  13 
 REDR BZ EPg    D 2239  2.58                              95   -0.0310  140 352 
 REDR BN ESg    C 2239 18.20                              95   -0.1910  140 352 
 REDR BZ  IAML    2239 30.17        14.0 1.55                           140 352 
                                                                                
 2017  1 4 2124 27.0 R  19.092 -73.410 21.0  DOM 10 0.7 4.1LDOM 4.0CDOM        1
 GAP=180        1.97       7.8     4.1 47.0  0.1852E+02 -0.4730E+01 -0.5428E+02E
 ACTION:UP  17-09-04 15:02 OP:jmlc STATUS:               ID:20170104212427     I
 OLDACT:UP  17-01-04 22:08 OP:FME  STATUS:               ID:20170104212400     3
 OLDACT:UP  17-01-04 22:00 OP:FME  STATUS:               ID:20170104212400     3
 OLDACT:UP  17-01-04 21:46 OP:FME  STATUS:               ID:20170104212400     3
 OLDACT:UP  17-01-04 21:38 OP:FME  STATUS:               ID:20170104212400     3
 OLDACT:ARG 17-01-04 21:31 OP:FME  STATUS:               ID:20170104212400     3
 2017-01-04-2124-00S.MAN___092                                                 6
 STAT SP IPHASW D HRMM SECON CODA AMPLIT PERI AZIMU VELO AIN AR TRES W  DIS CAZ7
 PAPH BZ EPg    C 2124 47.43   99                         95   -0.5110  133 118 
 PAPH BN ESg    C 2125  3.65                              95    0.2610  133 118 
 PAPH BE  IAML    2125  4.69      8117.8 0.20                           133 118 
 PAPH BN  IAML    2125  5.52     14131.8 0.24                           133 118 
 JIDR BZ EPg    D 2124 54.51  114                         94   -0.0610  177 112 
 JIDR BN ESg    D 2125 15.12                              94    0.1810  177 112 
 JIDR BN  IAML    2125 16.55      1218.8 0.85                           177 112 
 JIDR BE  IAML    2125 17.83      2305.7 0.35                           177 112 
 REDR BZ EPg    C 2124 55.14   72                         94   -0.0610  181  83 
 REDR BN ESg    D 2125 16.20                              94    0.1610  181  83 
 REDR BN  IAML    2125 17.44      4628.1 0.25                           181  83 
 REDR BE  IAML    2125 17.68      5681.1 0.20                           181  83 
 GTBY BZ EPg    C 2124 57.17  106                         93   -1.0310  201 298 
 GTBY BN ESg    C 2125 20.66                              93   -0.6010  201 298 
 GTBY BE ESg    D 2125 22.91                              93    1.6510  201 298 
 GTBY BN  IAML    2125 25.21       798.6 0.40                           201 298 
 GTBY BE  IAML    2125 30.19       458.6 0.50                           201 298 
 MCDR BZ EPg    C 2124 59.28  108                         93    0.5810  204  64 
 MCDR BN ESg    D 2125 22.41                              93    0.2810  204  64 
 MCDR BN  IAML    2125 23.92      2422.6 0.20                           204  64 
 MCDR BE  IAML    2125 25.09      2266.6 0.45                           204  64 
 NEDR BZ EPg    D 2125  0.47  125                         93    0.0610  216 108 
 NEDR BN ESg    C 2125 26.55                              93    1.4610  216 108 
 NEDR BN  IAML    2125 32.00       815.2 0.45                           216 108 
 NEDR BE  IAML    2125 38.26       966.8 0.65                           216 108 
 SDDR BZ EPg    C 2125  1.26   99                         93   -0.3910  224  93 
 SDDR BN ESg    C 2125 25.49                              93   -1.7610  224  93 
 SDDR BN  IAML    2125 28.16      1089.6 0.30                           224  93 
 SDDR BE  IAML    2125 44.40       565.2 0.85                           224  93 
 PODR BZ EPg    D 2125  4.84  139                         92   -0.4010  247 114 
 PODR BE ESg    D 2125 33.84                              92    0.3410  247 114 
 PODR BN  IAML    2125 51.19       607.0 0.40                           247 114 
 PODR BE  IAML    2125 51.70       669.1 1.25                           247 114 
 MADR BZ EPg    D 2125  5.25  146                         92   -0.0910  248  77 
 MADR BN ESg    C 2125 33.63                              92   -0.0410  248  77 
 MADR BE  IAML    2125 36.54      1735.1 0.35                           248  77 
 MADR BN  IAML    2125 36.93      2137.7 0.35                           248  77 
 ABDR BZ EPg    D 2125 12.07  133                         92   -0.4910  295  96 
 ABDR BN ESg    D 2125 46.69                              92    0.4510  295  96 
                                                                                
