 2017  129 0055 29.4 L  19.098 -67.964 95.7  DOM  4 0.5 2.3LDOM 3.3CDOM 2.7WDOM1
 SPEC AVERAGE  MO 13.2 ST  3.0 OM  2.8 f0 5.28 R0.3045 AL 0.00 WI 20.0 MW  2.7 3
 SPEC SD       MO  0.3 ST  1.4 OM  1.3 f00.589 R0.0349 AL      WI      MW  0.2 3
 GAP=208        1.24      26.1    15.4 37.9  0.3607E+03 -0.5108E+03 -0.8850E+03E
 SPEC PCDRBH Z MO 13.6 ST  4.2 OM  2.1 f0 4.53 R0.3504 AL-0.00 WI 20.0 MW  3.0 3
 SPEC PCDRBH Z T 05556 K 0.020 GD  123 VS 4.29 DE 3.23 Q0400.0 QA 0.70 Q1 1.00 3
 SPEC MIDRBH Z MO 12.8 ST  1.1 OM  1.2 f0 5.34 R0.2972 AL-0.00 WI 20.0 MW  2.5 3
 SPEC MIDRBH Z T 056 1 K 0.020 GD  149 VS 4.29 DE 3.23 Q0400.0 QA 0.70 Q1 1.00 3
 SPEC AGPRBH Z MO 13.2 ST  3.7 OM  1.6 f0 5.97 R0.2659 AL-0.00 WI 20.0 MW  2.7 3
 SPEC AGPRBH Z T 056 1 K 0.020 GD  148 VS 4.29 DE 3.23 Q0400.0 QA 0.70 Q1 1.00 3
 SPEC AOPRBH Z MO 13.2 ST  3.3 OM  1.6 f0 5.54 R0.2865 AL-0.00 WI 20.0 MW  2.8 3
 SPEC AOPRBH Z T 05618 K 0.020 GD  165 VS 4.29 DE 3.23 Q0400.0 QA 0.70 Q1 1.00 3
 2017-01-29-0054-00S.MAN___100                                                 6
 OLDACT:UP  17-01-29 21:39 OP:FME  STATUS:               ID:20170129005400     3
 OLDACT:UP  17-01-29 21:37 OP:FME  STATUS:               ID:20170129005400     3
 OLDACT:UP  17-01-29 21:34 OP:FME  STATUS:               ID:20170129005400     3
 OLDACT:UP  17-01-29 21:31 OP:FME  STATUS:               ID:20170129005400     3
 OLDACT:ARG 17-01-29 21:25 OP:jrdn STATUS:               ID:20170129005400     3
 ACTION:UP  17-09-04 15:02 OP:jmlc STATUS:               ID:20170129005529     I
 OLDACT:UP  17-01-29 21:43 OP:FME  STATUS:               ID:20170129005400     3
 OLDACT:UP  17-01-29 21:43 OP:FME  STATUS:               ID:20170129005400     3
 STAT SP IPHASW D HRMM SECON CODA AMPLIT PERI AZIMU VELO AIN AR TRES W  DIS CAZ7
 PCDR BZ EPg    D  055 46.15   69                        136    0.5910 78.2 214 
 PCDR BN ESg       055 57.65                             136    0.1210 78.2 214 
 PCDR BZ  IAML     056  1.97       154.2 0.50                          78.2 214 
 PCDR BN  IAML     056  2.54       117.2 0.30                          78.2 214 
 AGPR BZ EPg       055 48.49   64                        124   -0.2810  114 128 
 AGPR BZ  IAML     056 25.08        87.9 1.25                           114 128 
 MIDR BZ EPg    C  055 48.63   50                        124   -0.2410  115 264 
 MIDR BE ESg       056  2.44                             124   -0.8610  115 264 
 MIDR BE  IAML     056  3.25        40.7 0.15                           115 264 
 MIDR BZ  IAML     056  3.62        34.0 0.40                           115 264 
 SMDR BZ EPg    D  055 50.50   51                        120    0.0810  130 280 
 SMDR BE ESg    C  056  6.58                             120    0.5910  130 280 
 SMDR BZ  IAML     056 17.90         8.4 0.35                           130 280 
                                                                                
 2017  129 0114 34.6 L  19.410 -69.232 69.1  DOM  9 0.9 3.4LDOM 3.4CDOM        1
 GAP=207        2.41      14.3     8.9 12.0  0.8955E+02  0.3211E+02  0.1027E+02E
 ACTION:UP  17-09-04 15:02 OP:jmlc STATUS:               ID:20170129011434     I
 OLDACT:ARG 17-01-29 01:31 OP:nr   STATUS:               ID:20170129011400     3
 2017-01-29-0114-00S.MAN___100                                                 6
 STAT SP IPHASW D HRMM SECON CODA AMPLIT PERI AZIMU VELO AIN AR TRES W  DIS CAZ7
 SMDR BZ EPg    D  114 43.52   45                        167   -0.6610 14.1 161 
 SMDR BE ESg    C  114 51.62                             167    0.3410 14.1 161 
 SMDR BE  IAML     114 51.69      1782.9 0.45                          14.1 161 
 SMDR BN  IAML     114 51.73       950.4 0.15                          14.1 161 
 MIDR BZ EPg    C  114 45.51   48                        139   -0.7210 51.0 158 
 MIDR BE ESg    D  114 54.74                             139   -0.1110 51.0 158 
 MIDR BN  IAML     114 54.84      1558.7 0.20                          51.0 158 
 MIDR BE  IAML     114 54.89      2046.7 0.15                          51.0 158 
 NADR BZ EPg    D  114 46.64   64                        131   -0.8710 65.9 265 
 NADR BE ESg    C  114 57.27                             131    0.2010 65.9 265 
 NADR BE  IAML     114 57.85      2312.0 0.25                          65.9 265 
 NADR BN  IAML     114 58.27        43.5 0.30                          65.9 265 
 CADR BZ EPg    C  114 48.25   59                        125   -0.5610 79.6 291 
 CADR BE ESg    C  114 58.92                             125   -0.4210 79.6 291 
 CADR BE  IAML     115  1.08      1467.2 0.20                          79.6 291 
 CADR BN  IAML     115  1.27      1707.5 0.25                          79.6 291 
 PCDR BZ EPg    D  114 54.72   68                        110    0.0410  134 138 
 PCDR BE ESg    D  115 11.01                             110    1.4610  134 138 
 PCDR BE  IAML     115 11.67       229.3 0.25                           134 138 
 PCDR BN  IAML     115 12.66       499.2 0.60                           134 138 
 SC01 BZ EPg    D  114 58.61   95                        106    1.2010  157 271 
 SC01 BE ESg    D  115 15.95                             106    1.6510  157 271 
 SC01 BN  IAML     115 22.95       399.9 0.65                           157 271 
 SC01 BE  IAML     115 23.52       301.0 0.50                           157 271 
 ABDR BZ EPg    D  114 57.21   78                        106   -0.9410  161 246 
 ABDR BE ESg    C  115 15.21                             106   -0.3910  161 246 
 ABDR BN  IAML     115 16.69       457.1 0.40                           161 246 
 ABDR BE  IAML     115 17.89       549.9 0.20                           161 246 
 LUDR BZ EPg    C  115  0.69   70                        102   -0.3610  188 287 
 LUDR BE ESg    D  115 22.42                             102    1.7810  188 287 
 LUDR BE  IAML     115 23.32      1059.0 0.30                           188 287 
 LUDR BN  IAML     115 24.56      1882.8 0.30                           188 287 
 REDR BZ EPg    C  115  8.88   82                         97   -0.8110  260 267 
 REDR BE ESg    D  115 34.84                              97   -0.8310  260 267 
 REDR BE E      D  115 34.84                                            260 267 
 REDR BN  IAML     115 37.09       394.2 0.15                           260 267 
 REDR BE  IAML     115 37.17       408.6 0.15                           260 267 
                                                                                
 2017  129 1937 57.3 L  18.580 -68.802 27.9  DOM  9 0.9 2.2LDOM 3.5CDOM        1
 GAP=179        2.33       9.4     4.8  9.8  0.2678E+02  0.1244E+02  0.1242E+02E
 ACTION:UP  17-09-04 15:02 OP:jmlc STATUS:               ID:20170129193757     I
 OLDACT:ARG 17-01-30 00:07 OP:plst STATUS:               ID:20170129193700     3
 2017-01-29-1937-00S.MAN___100                                                 6
 STAT SP IPHASW D HRMM SECON CODA AMPLIT PERI AZIMU VELO AIN AR TRES W  DIS CAZ7
 HIDR BZ EPg      1938  1.63   35                        160   -0.1810 9.29  82 
 HIDR BN ESg      1938  5.90                             160    0.7310 9.29  82 
 HIDR BN  IAML    1938  6.84      1667.4 0.20                          9.29  82 
 PCDR BZ EPg      1938  4.43   62                        114   -0.9810 45.0  99 
 PCDR HZ ESg      1938 10.80                             114   -0.6210 45.0  99 
 PCDR HZ  IAML    1938 12.21       149.9 1.28                          45.0  99 
 MIDR BZ EPg      1938  5.49   72                        109   -0.7910 51.7 330 
 MIDR BN ESg      1938 12.78                             109   -0.1610 51.7 330 
 MIDR BN  IAML    1938 13.77        50.4 0.10                          51.7 330 
 SMDR BZ EPg      1938 11.82   55                         97    0.4910 88.4 333 
 SMDR BN ESg      1938 21.86                              97    0.1210 88.4 333 
 SMDR BN  IAML    1938 25.76        23.7 0.85                          88.4 333 
 AGPR BZ EPg      1938 25.65   73                         92    1.5710  179  94 
 AGPR BN ESg      1938 44.96                              92    1.0410  179  94 
 AGPR BN  IAML    1938 47.61       108.2 3.10                           179  94 
 ABDR BZ EPg    D 1938 25.89   81                         92   -0.5210  194 278 
 ABDR BN ESg    D 1938 48.20                              92    0.2210  194 278 
 ABDR BN  IAML    1938 56.45        34.9 0.45                           194 278 
 AOPR BZ EPg      1938 28.76   86                         92   -0.8010  218  96 
 AOPR BN ESg      1938 52.77                              92   -0.6810  218  96 
 SDDR BZ EPg      1938 38.31   89                         91    1.9610  266 280 
 SDDR BN  IAML    1939 13.74         9.3 0.95                           266 280 
 REDR BZ EPg      1938 42.34  101                         91   -0.9210  315 285 
 REDR BN ESg      1939 16.80                              91   -0.4910  315 285 
 REDR BN  IAML    1939 25.28         9.5 0.15                           315 285 
                                                                                
 2017  130 1739 42.3 L  18.463 -70.100 64.0  DOM 11 0.6 2.9LDOM 3.4CDOM        1
 GAP=165        1.64       8.7     4.0  7.7 -0.7204E+01  0.5738E+01 -0.2335E+02E
 ACTION:UP  17-09-04 15:02 OP:jmlc STATUS:               ID:20170130173942     I
 OLDACT:ARG 17-01-30 17:49 OP:fmgp STATUS:               ID:20170130173800     3
 2017-01-30-1738-00S.MAN___100                                                 6
 STAT SP IPHASW D HRMM SECON CODA AMPLIT PERI AZIMU VELO AIN AR TRES W  DIS CAZ7
 SDD  BZ EPg      1739 50.83   57                        161   -0.6310 19.2  90 
 SDD  BN ESg    C 1739 58.26                             161    0.0110 19.2  90 
 SDD  BE  IAML    1739 58.47       326.1 0.45                          19.2  90 
 SDD  BN  IAML    1739 59.86       131.7 0.45                          19.2  90 
 BADR BZ EPg    C 1739 51.49   42                        153   -0.5610 28.4 255 
 BADR BN ESg    D 1739 59.92                             153    0.6510 28.4 255 
 BADR BE  IAML    1740  0.66      1890.8 0.15                          28.4 255 
 BADR BN  IAML    1740  1.91      3151.0 0.30                          28.4 255 
 ABDR BZ EPg    C 1739 54.33   68                        128   -1.0210 67.6 305 
 ABDR BE ESg    D 1740  5.02                             128   -0.0010 67.6 305 
 ABDR BE  IAML    1740  5.33      1050.1 0.20                          67.6 305 
 ABDR BN  IAML    1740  6.01       867.9 0.30                          67.6 305 
 NADR BZ EPg      1739 58.41   78                        114   -0.1710  102  15 
 MIDR BZ EPg      1740  0.80   75                        108   -0.3710  125  62 
 MIDR BN ESg    D 1740 15.80                             108    0.6610  125  62 
 MIDR BE  IAML    1740 16.03       178.2 0.45                           125  62 
 MIDR BN  IAML    1740 16.06       145.6 0.45                           125  62 
 PODR BZ EPg      1740  1.20   84                        108   -0.6510  129 255 
 PODR BN ESg    C 1740 17.29                             108    0.9710  129 255 
 PODR BE  IAML    1740 20.53       171.8 0.65                           129 255 
 PODR BN  IAML    1740 20.97       149.3 0.35                           129 255 
 SDDR BZ EPg      1740  2.39   62                        106   -0.3510  138 295 
 HIDR BZ EPg      1740  4.39   64                        105    0.6510  147  84 
 HIDR BE  IAML    1740 23.36       267.1 0.25                           147  84 
 JIDR BZ EPg    C 1740  8.42   91                        100    0.1510  185 271 
 JIDR BE  IAML    1740 30.49       116.1 0.50                           185 271 
 JIDR BN  IAML    1740 31.09        91.9 0.65                           185 271 
 REDR BZ EPg    C 1740  8.39   67                        100   -0.6810  191 298 
 REDR BE ESg    D 1740 29.25                             100    0.3610  191 298 
 REDR BN  IAML    1740 38.07        78.2 0.65                           191 298 
 REDR BE  IAML    1740 38.91       114.2 0.15                           191 298 
 MCDR BZ EPg      1740 14.35   90                         97    0.9910  228 314 
 MCDR BN  IAML    1740 42.69       100.0 1.15                           228 314 
 MCDR BE  IAML    1740 46.08        54.1 0.20                           228 314 
                                                                                
 2017  130 1842 46.1 L  19.444 -70.636102.5  DOM  5 0.3 2.1LDOM 3.3CDOM        1
 GAP=244        0.77       8.6     7.8 11.3  0.5050E+02 -0.3587E+02 -0.5324E+02E
 ACTION:UP  17-09-04 15:02 OP:jmlc STATUS:               ID:20170130184246     I
 OLDACT:ARG 17-01-30 19:17 OP:AMMR STATUS:               ID:20170130184200     3
 2017-01-30-1842-00S.MAN___100                                                 6
 STAT SP IPHASW D HRMM SECON CODA AMPLIT PERI AZIMU VELO AIN AR TRES W  DIS CAZ7
 ABDR BZ EPg      1843  2.87   60                        143    0.1710 69.9 179 
 ABDR BN ESg      1843 15.08                             143    0.1210 69.9 179 
 ABDR BN  IAML    1843 16.15        29.8 0.80                          69.9 179 
 ABDR BE  IAML    1843 16.19        37.4 0.40                          69.9 179 
 SDDR BZ EPg      1843  3.26   68                        136   -0.3410 85.8 233 
 SDDR BE ESg      1843 16.13                             136   -0.3910 85.8 233 
 SDDR BN  IAML    1843 16.53        18.3 0.70                          85.8 233 
 SDDR BE  IAML    1843 24.96        17.4 3.10                          85.8 233 
 REDR BZ EPg      1843  6.14   56                        127    0.0810  113 261 
 REDR BN ESg    C 1843 21.28                             127    0.4810  113 261 
 REDR BN  IAML    1843 21.47        61.7 0.50                           113 261 
 REDR BE  IAML    1843 22.07        94.2 0.15                           113 261 
 MCDR BE ESg      1843 21.26                             126   -0.1310  118 295 
 MCDR BE  IAML    1843 23.12        44.3 0.25                           118 295 
 PODR BN  IAML    1843 44.51        36.7 1.65                           157 206 
                                                                                
 2017  130 1843 57.7 L  18.570 -68.638 78.7  DOM  7 0.6 2.4LDOM 3.3CDOM        1
 GAP=167        1.57      13.9    10.0  7.9  0.1085E+03 -0.1603E+01  0.5930E+01E
 ACTION:UP  17-09-04 15:02 OP:jmlc STATUS:               ID:20170130184357     I
 OLDACT:ARG 17-01-30 19:39 OP:AMMR STATUS:               ID:20170130184300     3
 2017-01-30-1843-00S.MAN___100                                                 6
 STAT SP IPHASW D HRMM SECON CODA AMPLIT PERI AZIMU VELO AIN AR TRES W  DIS CAZ7
 HIDR BZ EPg    C 1844  7.33   40                        173   -1.0410 8.43 286 
 HIDR BE ESg      1844 16.23                             173   -0.0110 8.43 286 
 HIDR BE  IAML    1844 18.14       176.6 0.25                          8.43 286 
 HIDR BN  IAML    1844 18.76       143.0 0.25                          8.43 286 
 PCDR BZ EPg      1844  8.25   60                        159   -0.6910 27.9 103 
 PCDR HN ESg      1844 18.01                             159    0.7810 27.9 103 
 PCDR HN  IAML    1844 19.26       101.8 0.54                          27.9 103 
 PCDR BN  IAML    1844 19.28       128.9 0.55                          27.9 103 
 MIDR BZ EPg      1844 10.69   63                        137   -0.5210 63.0 317 
 MIDR BN ESg      1844 21.57                             137    0.3810 63.0 317 
 MIDR BE  IAML    1844 21.73        62.0 0.60                          63.0 317 
 MIDR BN  IAML    1844 22.59        55.6 0.45                          63.0 317 
 SMDR BZ EPg      1844 13.97   62                        123   -0.5410 98.4 324 
 SMDR BN ESg      1844 27.22                             123    0.3010 98.4 324 
 SMDR BN  IAML    1844 30.82        37.5 0.55                          98.4 324 
 SMDR BE  IAML    1844 30.99        51.1 0.90                          98.4 324 
 CRPR BZ EPg      1844 23.04   77                        108    0.0610  175 111 
 CRPR BE  IAML    1844 48.68        21.7 1.20                           175 111 
 AOPR BZ EPg      1844 26.42   68                        105    0.4610  201  97 
 AOPR BE  IAML    1844 51.98       116.4 0.30                           201  97 
 AOPR BN  IAML    1844 55.18        88.0 0.25                           201  97 
 ABDR BZ EPg      1844 28.33   60                        104    0.8210  211 278 
 ABDR BN  IAML    1845  0.43        42.3 0.25                           211 278 
                                                                                
 2017  130 2300 17.7 L  18.167 -66.967 24.4  DOM  3 0.1 2.1LDOM 3.3CDOM        1
 GAP=168        0.35       1.4     1.6  4.6 -0.9066E+00  0.9592E+00 -0.3356E+01E
 ACTION:UP  17-09-04 15:02 OP:jmlc STATUS:               ID:20170130230017     I
 OLDACT:ARG 17-01-31 01:33 OP:plst STATUS:               ID:20170130225900     3
 2017-01-30-2259-00S.MAN___100                                                 6
 STAT SP IPHASW D HRMM SECON CODA AMPLIT PERI AZIMU VELO AIN AR TRES W  DIS CAZ7
 CRPR BZ EPg      23 0 22.73   68                        132   -0.1110 22.0 216 
 CRPR BN ESg      23 0 26.69                             132    0.0610 22.0 216 
 CRPR BN  IAML    23 0 26.82       214.4 0.25                          22.0 216 
 AOPR BZ EPg      23 0 23.77   76                        122   -0.0110 30.0  48 
 AOPR BN ESg      23 0 28.26                             122    0.0010 30.0  48 
 AOPR BN  IAML    23 0 28.42       323.1 0.20                          30.0  48 
 AGPR BZ EPg      23 0 24.72   56                        114    0.1210 36.8 336 
 AGPR BN ESg      23 0 29.62                             114   -0.0710 36.8 336 
 AGPR BN  IAML    23 0 30.39       141.4 0.25                          36.8 336 
                                                                                
